Name,DataType,Description,DataTypeID,Retentive,Force2,DisplayFormat,ArrayDimension1,ArrayDimension2,Publish,MarkAsUsed,MaxLength,InitialValue,DataSource,DataSourceClsid,IOAddress,IOAddressOffset,IOAddressAlias,Input_VTL,Output_VTL,DisplayName,OPCAccessLevel,extra_properties
R01132,INT,mirror of CV04_MTR1_CRNT,,YES,,Decimal,0,0,External Read/Write,NO,16,-7920,Controller,{98D70480-4881-11D4-9F26-0050DA19DE4A},%R01132,,,,,,Private,
R01133,INT,mirror of CV04_MTR2_CRNT,,YES,,Decimal,0,0,External Read/Write,NO,16,-7920,Controller,{98D70480-4881-11D4-9F26-0050DA19DE4A},%R01133,,,,,,Private,
R01134,INT,mirror of FV01C_POSTN,,YES,,Decimal,0,0,External Read/Write,NO,16,16760,Controller,{98D70480-4881-11D4-9F26-0050DA19DE4A},%R01134,,,,,,Private,
R01135,INT,mirror of FV02C_POSTN,,YES,,Decimal,0,0,External Read/Write,NO,16,22050,Controller,{98D70480-4881-11D4-9F26-0050DA19DE4A},%R01135,,,,,,Private,
R01136,INT,mirror of FV03C_POSTN,,YES,,Decimal,0,0,External Read/Write,NO,16,24560,Controller,{98D70480-4881-11D4-9F26-0050DA19DE4A},%R01136,,,,,,Private,
R01137,INT,mirror of FV04C_POSTN,,YES,,Decimal,0,0,External Read/Write,NO,16,23250,Controller,{98D70480-4881-11D4-9F26-0050DA19DE4A},%R01137,,,,,,Private,
R01138,INT,mirror of BN02_LVL,,YES,,Decimal,0,0,External Read/Write,NO,16,20480,Controller,{98D70480-4881-11D4-9F26-0050DA19DE4A},%R01138,,,,,,Private,
R01139,INT,mirror of CV04_WGH05_FLWRT,,YES,,Decimal,0,0,External Read/Write,NO,16,10,Controller,{98D70480-4881-11D4-9F26-0050DA19DE4A},%R01139,,,,,,Private,
R01140,INT,mirror of CV04_WGH04_FLWRT,,YES,,Decimal,0,0,External Read/Write,NO,16,0,Controller,{98D70480-4881-11D4-9F26-0050DA19DE4A},%R01140,,,,,,Private,
R01141,INT,mirror of CV04_WGH03_FLWRT,,YES,,Decimal,0,0,External Read/Write,NO,16,-20,Controller,{98D70480-4881-11D4-9F26-0050DA19DE4A},%R01141,,,,,,Private,
R01142,INT,mirror of CV04_WGH02_FLWRT,,YES,,Decimal,0,0,External Read/Write,NO,16,-40,Controller,{98D70480-4881-11D4-9F26-0050DA19DE4A},%R01142,,,,,,Private,
R01143,INT,mirror of FV05C_POSTN,,YES,,Decimal,0,0,External Read/Write,NO,16,19873,Controller,{98D70480-4881-11D4-9F26-0050DA19DE4A},%R01143,,,,,,Private,
R01144,INT,mirror of CV04_WGH07_FLWRT,,YES,,Decimal,0,0,External Read/Write,NO,16,0,Controller,{98D70480-4881-11D4-9F26-0050DA19DE4A},%R01144,,,,,,Private,
R01145,INT,mirror of CV04_MTR1_RTD1,,YES,,Decimal,0,0,External Read/Write,NO,16,46,Controller,{98D70480-4881-11D4-9F26-0050DA19DE4A},%R01145,,,,,,Private,
R01146,INT,mirror of CV04_MTR1_RTD2,,YES,,Decimal,0,0,External Read/Write,NO,16,47,Controller,{98D70480-4881-11D4-9F26-0050DA19DE4A},%R01146,,,,,,Private,
R01147,INT,mirror of CV04_MTR1_RTD3,,YES,,Decimal,0,0,External Read/Write,NO,16,44,Controller,{98D70480-4881-11D4-9F26-0050DA19DE4A},%R01147,,,,,,Private,
R01148,INT,mirror of CV04_BRG1_RTD1,,YES,,Decimal,0,0,External Read/Write,NO,16,48,Controller,{98D70480-4881-11D4-9F26-0050DA19DE4A},%R01148,,,,,,Private,
R01149,INT,mirror of CV04_BRG1_RTD2,,YES,,Decimal,0,0,External Read/Write,NO,16,45,Controller,{98D70480-4881-11D4-9F26-0050DA19DE4A},%R01149,,,,,,Private,
R01150,INT,mirror of CV04_GBOX1_RTD,,YES,,Decimal,0,0,External Read/Write,NO,16,39,Controller,{98D70480-4881-11D4-9F26-0050DA19DE4A},%R01150,,,,,,Private,
R01151,INT,mirror of CV04_MTR2_RTD1,,YES,,Decimal,0,0,External Read/Write,NO,16,42,Controller,{98D70480-4881-11D4-9F26-0050DA19DE4A},%R01151,,,,,,Private,
R01152,INT,mirror of CV04_MTR2_RTD2,,YES,,Decimal,0,0,External Read/Write,NO,16,42,Controller,{98D70480-4881-11D4-9F26-0050DA19DE4A},%R01152,,,,,,Private,
R01153,INT,mirror of CV04_MTR2_RTD3,,YES,,Decimal,0,0,External Read/Write,NO,16,42,Controller,{98D70480-4881-11D4-9F26-0050DA19DE4A},%R01153,,,,,,Private,
R01154,INT,mirror of CV04_BRG2_RTD1,,YES,,Decimal,0,0,External Read/Write,NO,16,42,Controller,{98D70480-4881-11D4-9F26-0050DA19DE4A},%R01154,,,,,,Private,
R01155,INT,mirror of CV04_BRG2_RTD2,,YES,,Decimal,0,0,External Read/Write,NO,16,43,Controller,{98D70480-4881-11D4-9F26-0050DA19DE4A},%R01155,,,,,,Private,
R01156,INT,mirror of CV04_GBOX2_RTD,,YES,,Decimal,0,0,External Read/Write,NO,16,35,Controller,{98D70480-4881-11D4-9F26-0050DA19DE4A},%R01156,,,,,,Private,
R01157,INT,mirror of CH4_GAS_LVL1,,YES,,Decimal,0,0,External Read/Write,NO,16,30,Controller,{98D70480-4881-11D4-9F26-0050DA19DE4A},%R01157,,,,,,Private,
R01158,INT,mirror of CO_GAS_LVL1,,YES,,Decimal,0,0,External Read/Write,NO,16,0,Controller,{98D70480-4881-11D4-9F26-0050DA19DE4A},%R01158,,,,,,Private,
R01159,INT,mirror of CH4_GAS_LVL2,,YES,,Decimal,0,0,External Read/Write,NO,16,20,Controller,{98D70480-4881-11D4-9F26-0050DA19DE4A},%R01159,,,,,,Private,
R01160,INT,mirror of CO_GAS_LVL2,,YES,,Decimal,0,0,External Read/Write,NO,16,170,Controller,{98D70480-4881-11D4-9F26-0050DA19DE4A},%R01160,,,,,,Private,
R01161,INT,mirror of CH4_GAS_LVL3,,YES,,Decimal,0,0,External Read/Write,NO,16,30,Controller,{98D70480-4881-11D4-9F26-0050DA19DE4A},%R01161,,,,,,Private,
R01162,INT,mirror of CO_GAS_LVL3,,YES,,Decimal,0,0,External Read/Write,NO,16,0,Controller,{98D70480-4881-11D4-9F26-0050DA19DE4A},%R01162,,,,,,Private,
R01163,INT,mirror of CH4_GAS_LVL4,,YES,,Decimal,0,0,External Read/Write,NO,16,20,Controller,{98D70480-4881-11D4-9F26-0050DA19DE4A},%R01163,,,,,,Private,
R01164,INT,mirror of CO_GAS_LVL4,,YES,,Decimal,0,0,External Read/Write,NO,16,180,Controller,{98D70480-4881-11D4-9F26-0050DA19DE4A},%R01164,,,,,,Private,
R01165,INT,mirror of CH4_GAS_LVL5,,YES,,Decimal,0,0,External Read/Write,NO,16,20,Controller,{98D70480-4881-11D4-9F26-0050DA19DE4A},%R01165,,,,,,Private,
R01166,INT,mirror of CO_GAS_LVL5,,YES,,Decimal,0,0,External Read/Write,NO,16,420,Controller,{98D70480-4881-11D4-9F26-0050DA19DE4A},%R01166,,,,,,Private,
R01167,INT,mirror of FN01_ANEM,,YES,,Decimal,0,0,External Read/Write,NO,16,1801,Controller,{98D70480-4881-11D4-9F26-0050DA19DE4A},%R01167,,,,,,Private,
R01168,INT,mirror of CV04_TT01_RAW,,YES,,Decimal,0,0,External Read/Write,NO,16,6864,Controller,{98D70480-4881-11D4-9F26-0050DA19DE4A},%R01168,,,,,,Private,
R01169,INT,mirror of CV04_TT02_RAW,,YES,,Decimal,0,0,External Read/Write,NO,16,6654,Controller,{98D70480-4881-11D4-9F26-0050DA19DE4A},%R01169,,,,,,Private,
R01170,INT,mirror of CV04_TT03_RAW,,YES,,Decimal,0,0,External Read/Write,NO,16,6904,Controller,{98D70480-4881-11D4-9F26-0050DA19DE4A},%R01170,,,,,,Private,
R01171,INT,mirror of CV04_TT04_RAW,,YES,,Decimal,0,0,External Read/Write,NO,16,7064,Controller,{98D70480-4881-11D4-9F26-0050DA19DE4A},%R01171,,,,,,Private,
R01172,INT,mirror of CV04_TT05_RAW,,YES,,Decimal,0,0,External Read/Write,NO,16,7204,Controller,{98D70480-4881-11D4-9F26-0050DA19DE4A},%R01172,,,,,,Private,
R01173,WORD,mirror of CV04_MTR1_CTRP,,YES,,Decimal,0,0,External Read/Write,NO,16,1,Controller,{98D70480-4881-11D4-9F26-0050DA19DE4A},%R01173,,,,,,Private,
R01174,WORD,mirror of CV04_MTR1_CB,,YES,,Decimal,0,0,External Read/Write,NO,16,1,Controller,{98D70480-4881-11D4-9F26-0050DA19DE4A},%R01174,,,,,,Private,
R01175,WORD,mirror of CV04_MTR1_CONT,,YES,,Decimal,0,0,External Read/Write,NO,16,1,Controller,{98D70480-4881-11D4-9F26-0050DA19DE4A},%R01175,,,,,,Private,
R01176,WORD,mirror of CV04_MTR1_ELR,,YES,,Decimal,0,0,External Read/Write,NO,16,1,Controller,{98D70480-4881-11D4-9F26-0050DA19DE4A},%R01176,,,,,,Private,
R01177,WORD,mirror of CV04_MTR1_VSD_FLT,,YES,,Decimal,0,0,External Read/Write,NO,16,0,Controller,{98D70480-4881-11D4-9F26-0050DA19DE4A},%R01177,,,,,,Private,
R01178,WORD,mirror of CV04_LCU_STRT,,YES,,Decimal,0,0,External Read/Write,NO,16,0,Controller,{98D70480-4881-11D4-9F26-0050DA19DE4A},%R01178,,,,,,Private,
R01179,WORD,mirror of CV04_LCU1_NISO,,YES,,Decimal,0,0,External Read/Write,NO,16,1,Controller,{98D70480-4881-11D4-9F26-0050DA19DE4A},%R01179,,,,,,Private,
R01180,WORD,mirror of CV04_LCU_ESP,,YES,,Decimal,0,0,External Read/Write,NO,16,0,Controller,{98D70480-4881-11D4-9F26-0050DA19DE4A},%R01180,,,,,,Private,
R01181,WORD,mirror of CV04_LCU_BLTDFTBYP,,YES,,Decimal,0,0,External Read/Write,NO,16,0,Controller,{98D70480-4881-11D4-9F26-0050DA19DE4A},%R01181,,,,,,Private,
R01182,WORD,mirror of CV04_PULLSW1A,,YES,,Decimal,0,0,External Read/Write,NO,16,0,Controller,{98D70480-4881-11D4-9F26-0050DA19DE4A},%R01182,,,,,,Private,
R01183,WORD,mirror of CV04_PULLSW1B,,YES,,Decimal,0,0,External Read/Write,NO,16,0,Controller,{98D70480-4881-11D4-9F26-0050DA19DE4A},%R01183,,,,,,Private,
R01184,WORD,mirror of CV04_PULLSW2A,,YES,,Decimal,0,0,External Read/Write,NO,16,0,Controller,{98D70480-4881-11D4-9F26-0050DA19DE4A},%R01184,,,,,,Private,
R01185,WORD,mirror of CV04_PULLSW2B,,YES,,Decimal,0,0,External Read/Write,NO,16,0,Controller,{98D70480-4881-11D4-9F26-0050DA19DE4A},%R01185,,,,,,Private,
R01186,WORD,mirror of CV04_PULLSW3A,,YES,,Decimal,0,0,External Read/Write,NO,16,0,Controller,{98D70480-4881-11D4-9F26-0050DA19DE4A},%R01186,,,,,,Private,
R01187,WORD,mirror of CV04_PULLSW3B,,YES,,Decimal,0,0,External Read/Write,NO,16,0,Controller,{98D70480-4881-11D4-9F26-0050DA19DE4A},%R01187,,,,,,Private,
R01188,WORD,mirror of CV04_PULLSW4A,,YES,,Decimal,0,0,External Read/Write,NO,16,0,Controller,{98D70480-4881-11D4-9F26-0050DA19DE4A},%R01188,,,,,,Private,
R01189,WORD,mirror of CV04_PULLSW4B,,YES,,Decimal,0,0,External Read/Write,NO,16,0,Controller,{98D70480-4881-11D4-9F26-0050DA19DE4A},%R01189,,,,,,Private,
R01190,WORD,mirror of CV04_BLTDF1,,YES,,Decimal,0,0,External Read/Write,NO,16,1,Controller,{98D70480-4881-11D4-9F26-0050DA19DE4A},%R01190,,,,,,Private,
R01191,WORD,mirror of CV04_BLTDF2,,YES,,Decimal,0,0,External Read/Write,NO,16,0,Controller,{98D70480-4881-11D4-9F26-0050DA19DE4A},%R01191,,,,,,Private,
R01192,WORD,mirror of CV04_BLTDF3,,YES,,Decimal,0,0,External Read/Write,NO,16,1,Controller,{98D70480-4881-11D4-9F26-0050DA19DE4A},%R01192,,,,,,Private,
R01193,WORD,mirror of CV04_BLTDF8,,YES,,Decimal,0,0,External Read/Write,NO,16,1,Controller,{98D70480-4881-11D4-9F26-0050DA19DE4A},%R01193,,,,,,Private,
R01194,WORD,mirror of CV04_BLTDF7,,YES,,Decimal,0,0,External Read/Write,NO,16,1,Controller,{98D70480-4881-11D4-9F26-0050DA19DE4A},%R01194,,,,,,Private,
R01195,WORD,mirror of CV04_BLTDF6,,YES,,Decimal,0,0,External Read/Write,NO,16,1,Controller,{98D70480-4881-11D4-9F26-0050DA19DE4A},%R01195,,,,,,Private,
R01196,WORD,mirror of CV04_USPD,,YES,,Decimal,0,0,External Read/Write,NO,16,1,Controller,{98D70480-4881-11D4-9F26-0050DA19DE4A},%R01196,,,,,,Private,
R01197,WORD,mirror of CV04_BLTRIP_01,,YES,,Decimal,0,0,External Read/Write,NO,16,1,Controller,{98D70480-4881-11D4-9F26-0050DA19DE4A},%R01197,,,,,,Private,
R01198,WORD,mirror of CV04_BLTRIP_02,,YES,,Decimal,0,0,External Read/Write,NO,16,1,Controller,{98D70480-4881-11D4-9F26-0050DA19DE4A},%R01198,,,,,,Private,
R01199,WORD,mirror of CV04_BLTRIP_03,,YES,,Decimal,0,0,External Read/Write,NO,16,1,Controller,{98D70480-4881-11D4-9F26-0050DA19DE4A},%R01199,,,,,,Private,
R01200,WORD,mirror of CV04_BLTRIP_04,,YES,,Decimal,0,0,External Read/Write,NO,16,1,Controller,{98D70480-4881-11D4-9F26-0050DA19DE4A},%R01200,,,,,,Private,
R01201,WORD,mirror of CV04_BLTRIP_05,,YES,,Decimal,0,0,External Read/Write,NO,16,1,Controller,{98D70480-4881-11D4-9F26-0050DA19DE4A},%R01201,,,,,,Private,
R01202,WORD,mirror of CV04_BLTRIP_06,,YES,,Decimal,0,0,External Read/Write,NO,16,1,Controller,{98D70480-4881-11D4-9F26-0050DA19DE4A},%R01202,,,,,,Private,
R01203,WORD,mirror of CV04_PULLSW5A,,YES,,Decimal,0,0,External Read/Write,NO,16,0,Controller,{98D70480-4881-11D4-9F26-0050DA19DE4A},%R01203,,,,,,Private,
R01204,WORD,mirror of CV04_PULLSW5B,,YES,,Decimal,0,0,External Read/Write,NO,16,0,Controller,{98D70480-4881-11D4-9F26-0050DA19DE4A},%R01204,,,,,,Private,
R01205,WORD,mirror of CV04_BRK1_CTRP,,YES,,Decimal,0,0,External Read/Write,NO,16,1,Controller,{98D70480-4881-11D4-9F26-0050DA19DE4A},%R01205,,,,,,Private,
R01206,WORD,mirror of CV04_BRK1_CB,,YES,,Decimal,0,0,External Read/Write,NO,16,1,Controller,{98D70480-4881-11D4-9F26-0050DA19DE4A},%R01206,,,,,,Private,
R01207,WORD,mirror of CV04_BRK1_CONT,,YES,,Decimal,0,0,External Read/Write,NO,16,0,Controller,{98D70480-4881-11D4-9F26-0050DA19DE4A},%R01207,,,,,,Private,
R01208,WORD,mirror of CV04_BRK1_ELR,,YES,,Decimal,0,0,External Read/Write,NO,16,1,Controller,{98D70480-4881-11D4-9F26-0050DA19DE4A},%R01208,,,,,,Private,
R01209,WORD,mirror of CV04_BRK1_TOL,,YES,,Decimal,0,0,External Read/Write,NO,16,0,Controller,{98D70480-4881-11D4-9F26-0050DA19DE4A},%R01209,,,,,,Private,
R01210,WORD,mirror of CV04_BLCU1_STRT,,YES,,Decimal,0,0,External Read/Write,NO,16,0,Controller,{98D70480-4881-11D4-9F26-0050DA19DE4A},%R01210,,,,,,Private,
R01211,WORD,mirror of CV04_BLCU1_ISO,,YES,,Decimal,0,0,External Read/Write,NO,16,1,Controller,{98D70480-4881-11D4-9F26-0050DA19DE4A},%R01211,,,,,,Private,
R01212,WORD,mirror of CV04_BRK1_LIFT,,YES,,Decimal,0,0,External Read/Write,NO,16,0,Controller,{98D70480-4881-11D4-9F26-0050DA19DE4A},%R01212,,,,,,Private,
R01213,WORD,mirror of CV04_MTR1_VSD_RUN,,YES,,Decimal,0,0,External Read/Write,NO,16,0,Controller,{98D70480-4881-11D4-9F26-0050DA19DE4A},%R01213,,,,,,Private,
R01214,WORD,mirror of CV04_MTR2_CTRP,,YES,,Decimal,0,0,External Read/Write,NO,16,1,Controller,{98D70480-4881-11D4-9F26-0050DA19DE4A},%R01214,,,,,,Private,
R01215,WORD,mirror of CV04_MTR2_CB,,YES,,Decimal,0,0,External Read/Write,NO,16,1,Controller,{98D70480-4881-11D4-9F26-0050DA19DE4A},%R01215,,,,,,Private,
R01216,WORD,mirror of CV04_MTR2_CONT,,YES,,Decimal,0,0,External Read/Write,NO,16,1,Controller,{98D70480-4881-11D4-9F26-0050DA19DE4A},%R01216,,,,,,Private,
R01217,WORD,mirror of CV04_MTR2_ELR,,YES,,Decimal,0,0,External Read/Write,NO,16,1,Controller,{98D70480-4881-11D4-9F26-0050DA19DE4A},%R01217,,,,,,Private,
R01218,WORD,mirror of CV04_MTR2_VSD_FLT,,YES,,Decimal,0,0,External Read/Write,NO,16,0,Controller,{98D70480-4881-11D4-9F26-0050DA19DE4A},%R01218,,,,,,Private,
R01219,WORD,mirror of CV04_LCU2_NISO,,YES,,Decimal,0,0,External Read/Write,NO,16,1,Controller,{98D70480-4881-11D4-9F26-0050DA19DE4A},%R01219,,,,,,Private,
R01220,WORD,mirror of CV04_MTR2_VSD_RUN,,YES,,Decimal,0,0,External Read/Write,NO,16,0,Controller,{98D70480-4881-11D4-9F26-0050DA19DE4A},%R01220,,,,,,Private,
R01221,WORD,mirror of CV04_BRK_SPD,,YES,,Decimal,0,0,External Read/Write,NO,16,1,Controller,{98D70480-4881-11D4-9F26-0050DA19DE4A},%R01221,,,,,,Private,
R01222,WORD,mirror of CV04_BRK2_CTRP,,YES,,Decimal,0,0,External Read/Write,NO,16,1,Controller,{98D70480-4881-11D4-9F26-0050DA19DE4A},%R01222,,,,,,Private,
R01223,WORD,mirror of CV04_BRK2_CB,,YES,,Decimal,0,0,External Read/Write,NO,16,1,Controller,{98D70480-4881-11D4-9F26-0050DA19DE4A},%R01223,,,,,,Private,
R01224,WORD,mirror of CV04_BRK2_CONT,,YES,,Decimal,0,0,External Read/Write,NO,16,0,Controller,{98D70480-4881-11D4-9F26-0050DA19DE4A},%R01224,,,,,,Private,
R01225,WORD,mirror of CV04_BRK2_ELR,,YES,,Decimal,0,0,External Read/Write,NO,16,1,Controller,{98D70480-4881-11D4-9F26-0050DA19DE4A},%R01225,,,,,,Private,
R01226,WORD,mirror of CV04_BRK2_TOL,,YES,,Decimal,0,0,External Read/Write,NO,16,0,Controller,{98D70480-4881-11D4-9F26-0050DA19DE4A},%R01226,,,,,,Private,
R01227,WORD,mirror of CV04_BLCU2_STRT,,YES,,Decimal,0,0,External Read/Write,NO,16,0,Controller,{98D70480-4881-11D4-9F26-0050DA19DE4A},%R01227,,,,,,Private,
R01228,WORD,mirror of CV04_BLCU2_ISO,,YES,,Decimal,0,0,External Read/Write,NO,16,1,Controller,{98D70480-4881-11D4-9F26-0050DA19DE4A},%R01228,,,,,,Private,
R01229,WORD,mirror of CV04_BRK2_LIFT,,YES,,Decimal,0,0,External Read/Write,NO,16,0,Controller,{98D70480-4881-11D4-9F26-0050DA19DE4A},%R01229,,,,,,Private,
R01230,WORD,mirror of FV01A_CTRP,,YES,,Decimal,0,0,External Read/Write,NO,16,1,Controller,{98D70480-4881-11D4-9F26-0050DA19DE4A},%R01230,,,,,,Private,
R01231,WORD,mirror of FV01A_MTR_CB,,YES,,Decimal,0,0,External Read/Write,NO,16,1,Controller,{98D70480-4881-11D4-9F26-0050DA19DE4A},%R01231,,,,,,Private,
R01232,WORD,mirror of FV01A_MTR_CONT,,YES,,Decimal,0,0,External Read/Write,NO,16,0,Controller,{98D70480-4881-11D4-9F26-0050DA19DE4A},%R01232,,,,,,Private,
R01233,WORD,mirror of FV01A_MTR_ELR,,YES,,Decimal,0,0,External Read/Write,NO,16,1,Controller,{98D70480-4881-11D4-9F26-0050DA19DE4A},%R01233,,,,,,Private,
R01234,WORD,mirror of FV01A_MTR_TOL,,YES,,Decimal,0,0,External Read/Write,NO,16,0,Controller,{98D70480-4881-11D4-9F26-0050DA19DE4A},%R01234,,,,,,Private,
R01235,WORD,mirror of FV01A_MTR_THM,,YES,,Decimal,0,0,External Read/Write,NO,16,0,Controller,{98D70480-4881-11D4-9F26-0050DA19DE4A},%R01235,,,,,,Private,
R01236,WORD,mirror of FV01_LCU_STRT,,YES,,Decimal,0,0,External Read/Write,NO,16,0,Controller,{98D70480-4881-11D4-9F26-0050DA19DE4A},%R01236,,,,,,Private,
R01237,WORD,mirror of FV01A_LCU_ISO,,YES,,Decimal,0,0,External Read/Write,NO,16,1,Controller,{98D70480-4881-11D4-9F26-0050DA19DE4A},%R01237,,,,,,Private,
R01238,WORD,mirror of FV01_LCU_ESP,,YES,,Decimal,0,0,External Read/Write,NO,16,0,Controller,{98D70480-4881-11D4-9F26-0050DA19DE4A},%R01238,,,,,,Private,
R01239,WORD,mirror of FV01B_CTRP,,YES,,Decimal,0,0,External Read/Write,NO,16,1,Controller,{98D70480-4881-11D4-9F26-0050DA19DE4A},%R01239,,,,,,Private,
R01240,WORD,mirror of FV01B_MTR_CB,,YES,,Decimal,0,0,External Read/Write,NO,16,1,Controller,{98D70480-4881-11D4-9F26-0050DA19DE4A},%R01240,,,,,,Private,
R01241,WORD,mirror of FV01B_MTR_CONT,,YES,,Decimal,0,0,External Read/Write,NO,16,0,Controller,{98D70480-4881-11D4-9F26-0050DA19DE4A},%R01241,,,,,,Private,
R01242,WORD,mirror of FV01B_MTR_ELR,,YES,,Decimal,0,0,External Read/Write,NO,16,1,Controller,{98D70480-4881-11D4-9F26-0050DA19DE4A},%R01242,,,,,,Private,
R01243,WORD,mirror of FV01B_MTR_TOL,,YES,,Decimal,0,0,External Read/Write,NO,16,0,Controller,{98D70480-4881-11D4-9F26-0050DA19DE4A},%R01243,,,,,,Private,
R01244,WORD,mirror of FV01B_MTR_THM,,YES,,Decimal,0,0,External Read/Write,NO,16,0,Controller,{98D70480-4881-11D4-9F26-0050DA19DE4A},%R01244,,,,,,Private,
R01245,WORD,mirror of FV01B_LCU_ISO,,YES,,Decimal,0,0,External Read/Write,NO,16,1,Controller,{98D70480-4881-11D4-9F26-0050DA19DE4A},%R01245,,,,,,Private,
R01246,WORD,mirror of FV01C_CTRP,,YES,,Decimal,0,0,External Read/Write,NO,16,1,Controller,{98D70480-4881-11D4-9F26-0050DA19DE4A},%R01246,,,,,,Private,
R01247,WORD,mirror of FV01C_ACT_CB,,YES,,Decimal,0,0,External Read/Write,NO,16,1,Controller,{98D70480-4881-11D4-9F26-0050DA19DE4A},%R01247,,,,,,Private,
R01248,WORD,mirror of FV01C_ACT_OPNC,,YES,,Decimal,0,0,External Read/Write,NO,16,0,Controller,{98D70480-4881-11D4-9F26-0050DA19DE4A},%R01248,,,,,,Private,
R01249,WORD,mirror of FV01C_ACT_CLSC,,YES,,Decimal,0,0,External Read/Write,NO,16,0,Controller,{98D70480-4881-11D4-9F26-0050DA19DE4A},%R01249,,,,,,Private,
R01250,WORD,mirror of FV01C_ACT_ELR,,YES,,Decimal,0,0,External Read/Write,NO,16,1,Controller,{98D70480-4881-11D4-9F26-0050DA19DE4A},%R01250,,,,,,Private,
R01251,WORD,mirror of FV01C_ACT_EOL,,YES,,Decimal,0,0,External Read/Write,NO,16,1,Controller,{98D70480-4881-11D4-9F26-0050DA19DE4A},%R01251,,,,,,Private,
R01252,WORD,mirror of FV01C_LCU_OPN,,YES,,Decimal,0,0,External Read/Write,NO,16,0,Controller,{98D70480-4881-11D4-9F26-0050DA19DE4A},%R01252,,,,,,Private,
R01253,WORD,mirror of FV01C_LCU_CLS,,YES,,Decimal,0,0,External Read/Write,NO,16,0,Controller,{98D70480-4881-11D4-9F26-0050DA19DE4A},%R01253,,,,,,Private,
R01254,WORD,mirror of FV01C_LCU_ISO,,YES,,Decimal,0,0,External Read/Write,NO,16,1,Controller,{98D70480-4881-11D4-9F26-0050DA19DE4A},%R01254,,,,,,Private,
R01255,WORD,mirror of FV01C_ACT_OSW,,YES,,Decimal,0,0,External Read/Write,NO,16,1,Controller,{98D70480-4881-11D4-9F26-0050DA19DE4A},%R01255,,,,,,Private,
R01256,WORD,mirror of FV01C_ACT_CSW,,YES,,Decimal,0,0,External Read/Write,NO,16,0,Controller,{98D70480-4881-11D4-9F26-0050DA19DE4A},%R01256,,,,,,Private,
R01257,WORD,mirror of FV02A_CTRP,,YES,,Decimal,0,0,External Read/Write,NO,16,1,Controller,{98D70480-4881-11D4-9F26-0050DA19DE4A},%R01257,,,,,,Private,
R01258,WORD,mirror of FV02A_MTR_CB,,YES,,Decimal,0,0,External Read/Write,NO,16,1,Controller,{98D70480-4881-11D4-9F26-0050DA19DE4A},%R01258,,,,,,Private,
R01259,WORD,mirror of FV02A_MTR_CONT,,YES,,Decimal,0,0,External Read/Write,NO,16,0,Controller,{98D70480-4881-11D4-9F26-0050DA19DE4A},%R01259,,,,,,Private,
R01260,WORD,mirror of FV02A_MTR_ELR,,YES,,Decimal,0,0,External Read/Write,NO,16,1,Controller,{98D70480-4881-11D4-9F26-0050DA19DE4A},%R01260,,,,,,Private,
R01261,WORD,mirror of FV02A_MTR_TOL,,YES,,Decimal,0,0,External Read/Write,NO,16,0,Controller,{98D70480-4881-11D4-9F26-0050DA19DE4A},%R01261,,,,,,Private,
R01262,WORD,mirror of FV02A_MTR_THM,,YES,,Decimal,0,0,External Read/Write,NO,16,0,Controller,{98D70480-4881-11D4-9F26-0050DA19DE4A},%R01262,,,,,,Private,
R01263,WORD,mirror of FV02_LCU_STRT,,YES,,Decimal,0,0,External Read/Write,NO,16,0,Controller,{98D70480-4881-11D4-9F26-0050DA19DE4A},%R01263,,,,,,Private,
R01264,WORD,mirror of FV02A_LCU_ISO,,YES,,Decimal,0,0,External Read/Write,NO,16,1,Controller,{98D70480-4881-11D4-9F26-0050DA19DE4A},%R01264,,,,,,Private,
R01265,WORD,mirror of FV02_LCU_ESP,,YES,,Decimal,0,0,External Read/Write,NO,16,0,Controller,{98D70480-4881-11D4-9F26-0050DA19DE4A},%R01265,,,,,,Private,
R01266,WORD,mirror of FV02B_CTRP,,YES,,Decimal,0,0,External Read/Write,NO,16,1,Controller,{98D70480-4881-11D4-9F26-0050DA19DE4A},%R01266,,,,,,Private,
R01267,WORD,mirror of FV02B_MTR_CB,,YES,,Decimal,0,0,External Read/Write,NO,16,1,Controller,{98D70480-4881-11D4-9F26-0050DA19DE4A},%R01267,,,,,,Private,
R01268,WORD,mirror of FV02B_MTR_CONT,,YES,,Decimal,0,0,External Read/Write,NO,16,0,Controller,{98D70480-4881-11D4-9F26-0050DA19DE4A},%R01268,,,,,,Private,
R01269,WORD,mirror of FV02B_MTR_ELR,,YES,,Decimal,0,0,External Read/Write,NO,16,1,Controller,{98D70480-4881-11D4-9F26-0050DA19DE4A},%R01269,,,,,,Private,
R01270,WORD,mirror of FV02B_MTR_TOL,,YES,,Decimal,0,0,External Read/Write,NO,16,0,Controller,{98D70480-4881-11D4-9F26-0050DA19DE4A},%R01270,,,,,,Private,
R01271,WORD,mirror of FV02B_MTR_THM,,YES,,Decimal,0,0,External Read/Write,NO,16,0,Controller,{98D70480-4881-11D4-9F26-0050DA19DE4A},%R01271,,,,,,Private,
R01272,WORD,mirror of FV02B_LCU_ISO,,YES,,Decimal,0,0,External Read/Write,NO,16,1,Controller,{98D70480-4881-11D4-9F26-0050DA19DE4A},%R01272,,,,,,Private,
R01273,WORD,mirror of FV02C_CTRP,,YES,,Decimal,0,0,External Read/Write,NO,16,1,Controller,{98D70480-4881-11D4-9F26-0050DA19DE4A},%R01273,,,,,,Private,
R01274,WORD,mirror of FV02C_ACT_CB,,YES,,Decimal,0,0,External Read/Write,NO,16,1,Controller,{98D70480-4881-11D4-9F26-0050DA19DE4A},%R01274,,,,,,Private,
R01275,WORD,mirror of FV02C_ACT_OPNC,,YES,,Decimal,0,0,External Read/Write,NO,16,0,Controller,{98D70480-4881-11D4-9F26-0050DA19DE4A},%R01275,,,,,,Private,
R01276,WORD,mirror of FV02C_ACT_CLSC,,YES,,Decimal,0,0,External Read/Write,NO,16,0,Controller,{98D70480-4881-11D4-9F26-0050DA19DE4A},%R01276,,,,,,Private,
R01277,WORD,mirror of FV02C_ACT_ELR,,YES,,Decimal,0,0,External Read/Write,NO,16,1,Controller,{98D70480-4881-11D4-9F26-0050DA19DE4A},%R01277,,,,,,Private,
R01278,WORD,mirror of FV02C_ACT_EOL,,YES,,Decimal,0,0,External Read/Write,NO,16,1,Controller,{98D70480-4881-11D4-9F26-0050DA19DE4A},%R01278,,,,,,Private,
R01279,WORD,mirror of FV02C_LCU_OPN,,YES,,Decimal,0,0,External Read/Write,NO,16,0,Controller,{98D70480-4881-11D4-9F26-0050DA19DE4A},%R01279,,,,,,Private,
R01280,WORD,mirror of FV02C_LCU_CLS,,YES,,Decimal,0,0,External Read/Write,NO,16,0,Controller,{98D70480-4881-11D4-9F26-0050DA19DE4A},%R01280,,,,,,Private,
R01281,WORD,mirror of FV02C_LCU_ISO,,YES,,Decimal,0,0,External Read/Write,NO,16,1,Controller,{98D70480-4881-11D4-9F26-0050DA19DE4A},%R01281,,,,,,Private,
R01282,WORD,mirror of FV02C_ACT_OSW,,YES,,Decimal,0,0,External Read/Write,NO,16,1,Controller,{98D70480-4881-11D4-9F26-0050DA19DE4A},%R01282,,,,,,Private,
R01283,WORD,mirror of FV02C_ACT_CSW,,YES,,Decimal,0,0,External Read/Write,NO,16,0,Controller,{98D70480-4881-11D4-9F26-0050DA19DE4A},%R01283,,,,,,Private,
R01284,WORD,mirror of FV03A_CTRP,,YES,,Decimal,0,0,External Read/Write,NO,16,1,Controller,{98D70480-4881-11D4-9F26-0050DA19DE4A},%R01284,,,,,,Private,
R01285,WORD,mirror of FV03A_MTR_CB,,YES,,Decimal,0,0,External Read/Write,NO,16,1,Controller,{98D70480-4881-11D4-9F26-0050DA19DE4A},%R01285,,,,,,Private,
R01286,WORD,mirror of FV03A_MTR_CONT,,YES,,Decimal,0,0,External Read/Write,NO,16,0,Controller,{98D70480-4881-11D4-9F26-0050DA19DE4A},%R01286,,,,,,Private,
R01287,WORD,mirror of FV03A_MTR_ELR,,YES,,Decimal,0,0,External Read/Write,NO,16,1,Controller,{98D70480-4881-11D4-9F26-0050DA19DE4A},%R01287,,,,,,Private,
R01288,WORD,mirror of FV03A_MTR_TOL,,YES,,Decimal,0,0,External Read/Write,NO,16,0,Controller,{98D70480-4881-11D4-9F26-0050DA19DE4A},%R01288,,,,,,Private,
R01289,WORD,mirror of FV03A_MTR_THM,,YES,,Decimal,0,0,External Read/Write,NO,16,0,Controller,{98D70480-4881-11D4-9F26-0050DA19DE4A},%R01289,,,,,,Private,
R01290,WORD,mirror of FV03_LCU_STRT,,YES,,Decimal,0,0,External Read/Write,NO,16,0,Controller,{98D70480-4881-11D4-9F26-0050DA19DE4A},%R01290,,,,,,Private,
R01291,WORD,mirror of FV03A_LCU_ISO,,YES,,Decimal,0,0,External Read/Write,NO,16,1,Controller,{98D70480-4881-11D4-9F26-0050DA19DE4A},%R01291,,,,,,Private,
R01292,WORD,mirror of FV03_LCU_ESP,,YES,,Decimal,0,0,External Read/Write,NO,16,0,Controller,{98D70480-4881-11D4-9F26-0050DA19DE4A},%R01292,,,,,,Private,
R01293,WORD,mirror of FV03B_CTRP,,YES,,Decimal,0,0,External Read/Write,NO,16,1,Controller,{98D70480-4881-11D4-9F26-0050DA19DE4A},%R01293,,,,,,Private,
R01294,WORD,mirror of FV03B_MTR_CB,,YES,,Decimal,0,0,External Read/Write,NO,16,1,Controller,{98D70480-4881-11D4-9F26-0050DA19DE4A},%R01294,,,,,,Private,
R01295,WORD,mirror of FV03B_MTR_CONT,,YES,,Decimal,0,0,External Read/Write,NO,16,0,Controller,{98D70480-4881-11D4-9F26-0050DA19DE4A},%R01295,,,,,,Private,
R01296,WORD,mirror of FV03B_MTR_ELR,,YES,,Decimal,0,0,External Read/Write,NO,16,1,Controller,{98D70480-4881-11D4-9F26-0050DA19DE4A},%R01296,,,,,,Private,
R01297,WORD,mirror of FV03B_MTR_TOL,,YES,,Decimal,0,0,External Read/Write,NO,16,0,Controller,{98D70480-4881-11D4-9F26-0050DA19DE4A},%R01297,,,,,,Private,
R01298,WORD,mirror of FV03B_MTR_THM,,YES,,Decimal,0,0,External Read/Write,NO,16,0,Controller,{98D70480-4881-11D4-9F26-0050DA19DE4A},%R01298,,,,,,Private,
R01299,WORD,mirror of FV03B_LCU_ISO,,YES,,Decimal,0,0,External Read/Write,NO,16,1,Controller,{98D70480-4881-11D4-9F26-0050DA19DE4A},%R01299,,,,,,Private,
R01300,WORD,mirror of FV03C_CTRP,,YES,,Decimal,0,0,External Read/Write,NO,16,1,Controller,{98D70480-4881-11D4-9F26-0050DA19DE4A},%R01300,,,,,,Private,
R01301,WORD,mirror of FV03C_ACT_CB,,YES,,Decimal,0,0,External Read/Write,NO,16,1,Controller,{98D70480-4881-11D4-9F26-0050DA19DE4A},%R01301,,,,,,Private,
R01302,WORD,mirror of FV03C_ACT_OPNC,,YES,,Decimal,0,0,External Read/Write,NO,16,0,Controller,{98D70480-4881-11D4-9F26-0050DA19DE4A},%R01302,,,,,,Private,
R01303,WORD,mirror of FV03C_ACT_CLSC,,YES,,Decimal,0,0,External Read/Write,NO,16,0,Controller,{98D70480-4881-11D4-9F26-0050DA19DE4A},%R01303,,,,,,Private,
R01304,WORD,mirror of FV03C_ACT_ELR,,YES,,Decimal,0,0,External Read/Write,NO,16,1,Controller,{98D70480-4881-11D4-9F26-0050DA19DE4A},%R01304,,,,,,Private,
R01305,WORD,mirror of FV03C_ACT_EOL,,YES,,Decimal,0,0,External Read/Write,NO,16,1,Controller,{98D70480-4881-11D4-9F26-0050DA19DE4A},%R01305,,,,,,Private,
R01306,WORD,mirror of FV03C_LCU_OPN,,YES,,Decimal,0,0,External Read/Write,NO,16,0,Controller,{98D70480-4881-11D4-9F26-0050DA19DE4A},%R01306,,,,,,Private,
R01307,WORD,mirror of FV03C_LCU_CLS,,YES,,Decimal,0,0,External Read/Write,NO,16,0,Controller,{98D70480-4881-11D4-9F26-0050DA19DE4A},%R01307,,,,,,Private,
R01308,WORD,mirror of FV03C_LCU_ISO,,YES,,Decimal,0,0,External Read/Write,NO,16,1,Controller,{98D70480-4881-11D4-9F26-0050DA19DE4A},%R01308,,,,,,Private,
R01309,WORD,mirror of FV03C_ACT_OSW,,YES,,Decimal,0,0,External Read/Write,NO,16,1,Controller,{98D70480-4881-11D4-9F26-0050DA19DE4A},%R01309,,,,,,Private,
R01310,WORD,mirror of FV03C_ACT_CSW,,YES,,Decimal,0,0,External Read/Write,NO,16,0,Controller,{98D70480-4881-11D4-9F26-0050DA19DE4A},%R01310,,,,,,Private,
R01311,WORD,mirror of FV04A_CTRP,,YES,,Decimal,0,0,External Read/Write,NO,16,1,Controller,{98D70480-4881-11D4-9F26-0050DA19DE4A},%R01311,,,,,,Private,
R01312,WORD,mirror of FV04A_MTR_CB,,YES,,Decimal,0,0,External Read/Write,NO,16,1,Controller,{98D70480-4881-11D4-9F26-0050DA19DE4A},%R01312,,,,,,Private,
R01313,WORD,mirror of FV04A_MTR_CONT,,YES,,Decimal,0,0,External Read/Write,NO,16,0,Controller,{98D70480-4881-11D4-9F26-0050DA19DE4A},%R01313,,,,,,Private,
R01314,WORD,mirror of FV04A_MTR_ELR,,YES,,Decimal,0,0,External Read/Write,NO,16,1,Controller,{98D70480-4881-11D4-9F26-0050DA19DE4A},%R01314,,,,,,Private,
R01315,WORD,mirror of FV04A_MTR_TOL,,YES,,Decimal,0,0,External Read/Write,NO,16,0,Controller,{98D70480-4881-11D4-9F26-0050DA19DE4A},%R01315,,,,,,Private,
R01316,WORD,mirror of FV04A_MTR_THM,,YES,,Decimal,0,0,External Read/Write,NO,16,0,Controller,{98D70480-4881-11D4-9F26-0050DA19DE4A},%R01316,,,,,,Private,
R01317,WORD,mirror of FV04_LCU_STRT,,YES,,Decimal,0,0,External Read/Write,NO,16,0,Controller,{98D70480-4881-11D4-9F26-0050DA19DE4A},%R01317,,,,,,Private,
R01318,WORD,mirror of FV04A_LCU_ISO,,YES,,Decimal,0,0,External Read/Write,NO,16,1,Controller,{98D70480-4881-11D4-9F26-0050DA19DE4A},%R01318,,,,,,Private,
R01319,WORD,mirror of FV04_LCU_ESP,,YES,,Decimal,0,0,External Read/Write,NO,16,0,Controller,{98D70480-4881-11D4-9F26-0050DA19DE4A},%R01319,,,,,,Private,
R01320,WORD,mirror of FV04B_CTRP,,YES,,Decimal,0,0,External Read/Write,NO,16,1,Controller,{98D70480-4881-11D4-9F26-0050DA19DE4A},%R01320,,,,,,Private,
R01321,WORD,mirror of FV04B_MTR_CB,,YES,,Decimal,0,0,External Read/Write,NO,16,1,Controller,{98D70480-4881-11D4-9F26-0050DA19DE4A},%R01321,,,,,,Private,
R01322,WORD,mirror of FV04B_MTR_CONT,,YES,,Decimal,0,0,External Read/Write,NO,16,0,Controller,{98D70480-4881-11D4-9F26-0050DA19DE4A},%R01322,,,,,,Private,
R01323,WORD,mirror of FV04B_MTR_ELR,,YES,,Decimal,0,0,External Read/Write,NO,16,1,Controller,{98D70480-4881-11D4-9F26-0050DA19DE4A},%R01323,,,,,,Private,
R01324,WORD,mirror of FV04B_MTR_TOL,,YES,,Decimal,0,0,External Read/Write,NO,16,0,Controller,{98D70480-4881-11D4-9F26-0050DA19DE4A},%R01324,,,,,,Private,
R01325,WORD,mirror of FV04B_MTR_THM,,YES,,Decimal,0,0,External Read/Write,NO,16,0,Controller,{98D70480-4881-11D4-9F26-0050DA19DE4A},%R01325,,,,,,Private,
R01326,WORD,mirror of FV04B_LCU_ISO,,YES,,Decimal,0,0,External Read/Write,NO,16,1,Controller,{98D70480-4881-11D4-9F26-0050DA19DE4A},%R01326,,,,,,Private,
R01327,WORD,mirror of FV04C_CTRP,,YES,,Decimal,0,0,External Read/Write,NO,16,1,Controller,{98D70480-4881-11D4-9F26-0050DA19DE4A},%R01327,,,,,,Private,
R01328,WORD,mirror of FV04C_ACT_CB,,YES,,Decimal,0,0,External Read/Write,NO,16,1,Controller,{98D70480-4881-11D4-9F26-0050DA19DE4A},%R01328,,,,,,Private,
R01329,WORD,mirror of FV04C_ACT_OPNC,,YES,,Decimal,0,0,External Read/Write,NO,16,0,Controller,{98D70480-4881-11D4-9F26-0050DA19DE4A},%R01329,,,,,,Private,
R01330,WORD,mirror of FV04C_ACT_CLSC,,YES,,Decimal,0,0,External Read/Write,NO,16,0,Controller,{98D70480-4881-11D4-9F26-0050DA19DE4A},%R01330,,,,,,Private,
R01331,WORD,mirror of FV04C_ACT_ELR,,YES,,Decimal,0,0,External Read/Write,NO,16,1,Controller,{98D70480-4881-11D4-9F26-0050DA19DE4A},%R01331,,,,,,Private,
R01332,WORD,mirror of FV04C_ACT_EOL,,YES,,Decimal,0,0,External Read/Write,NO,16,1,Controller,{98D70480-4881-11D4-9F26-0050DA19DE4A},%R01332,,,,,,Private,
R01333,WORD,mirror of FV04C_LCU_OPN,,YES,,Decimal,0,0,External Read/Write,NO,16,0,Controller,{98D70480-4881-11D4-9F26-0050DA19DE4A},%R01333,,,,,,Private,
R01334,WORD,mirror of FV04C_LCU_CLS,,YES,,Decimal,0,0,External Read/Write,NO,16,0,Controller,{98D70480-4881-11D4-9F26-0050DA19DE4A},%R01334,,,,,,Private,
R01335,WORD,mirror of FV04C_LCU_ISO,,YES,,Decimal,0,0,External Read/Write,NO,16,1,Controller,{98D70480-4881-11D4-9F26-0050DA19DE4A},%R01335,,,,,,Private,
R01336,WORD,mirror of FV04C_ACT_OSW,,YES,,Decimal,0,0,External Read/Write,NO,16,1,Controller,{98D70480-4881-11D4-9F26-0050DA19DE4A},%R01336,,,,,,Private,
R01337,WORD,mirror of FV04C_ACT_CSW,,YES,,Decimal,0,0,External Read/Write,NO,16,0,Controller,{98D70480-4881-11D4-9F26-0050DA19DE4A},%R01337,,,,,,Private,
R01338,WORD,mirror of FV01D_CTRP,,YES,,Decimal,0,0,External Read/Write,NO,16,1,Controller,{98D70480-4881-11D4-9F26-0050DA19DE4A},%R01338,,,,,,Private,
R01339,WORD,mirror of FV01D_ACT_CB,,YES,,Decimal,0,0,External Read/Write,NO,16,1,Controller,{98D70480-4881-11D4-9F26-0050DA19DE4A},%R01339,,,,,,Private,
R01340,WORD,mirror of FV01D_ACT_OPNC,,YES,,Decimal,0,0,External Read/Write,NO,16,0,Controller,{98D70480-4881-11D4-9F26-0050DA19DE4A},%R01340,,,,,,Private,
R01341,WORD,mirror of FV01D_ACT_CLSC,,YES,,Decimal,0,0,External Read/Write,NO,16,0,Controller,{98D70480-4881-11D4-9F26-0050DA19DE4A},%R01341,,,,,,Private,
R01342,WORD,mirror of FV01D_ACT_ELR,,YES,,Decimal,0,0,External Read/Write,NO,16,1,Controller,{98D70480-4881-11D4-9F26-0050DA19DE4A},%R01342,,,,,,Private,
R01343,WORD,mirror of FV01D_ACT_TOL,,YES,,Decimal,0,0,External Read/Write,NO,16,1,Controller,{98D70480-4881-11D4-9F26-0050DA19DE4A},%R01343,,,,,,Private,
R01344,WORD,mirror of FV01D_LCU_OPN,,YES,,Decimal,0,0,External Read/Write,NO,16,0,Controller,{98D70480-4881-11D4-9F26-0050DA19DE4A},%R01344,,,,,,Private,
R01345,WORD,mirror of FV01D_LCU_CLS,,YES,,Decimal,0,0,External Read/Write,NO,16,0,Controller,{98D70480-4881-11D4-9F26-0050DA19DE4A},%R01345,,,,,,Private,
R01346,WORD,mirror of FV01D_LCU_ISO,,YES,,Decimal,0,0,External Read/Write,NO,16,1,Controller,{98D70480-4881-11D4-9F26-0050DA19DE4A},%R01346,,,,,,Private,
R01347,WORD,mirror of FV01D_ACT_CSW,,YES,,Decimal,0,0,External Read/Write,NO,16,0,Controller,{98D70480-4881-11D4-9F26-0050DA19DE4A},%R01347,,,,,,Private,
R01348,WORD,mirror of FV01D_ACT_OSW,,YES,,Decimal,0,0,External Read/Write,NO,16,1,Controller,{98D70480-4881-11D4-9F26-0050DA19DE4A},%R01348,,,,,,Private,
R01349,WORD,mirror of FV01_STV,,YES,,Decimal,0,0,External Read/Write,NO,16,0,Controller,{98D70480-4881-11D4-9F26-0050DA19DE4A},%R01349,,,,,,Private,
R01350,WORD,mirror of FV02D_CTRP,,YES,,Decimal,0,0,External Read/Write,NO,16,1,Controller,{98D70480-4881-11D4-9F26-0050DA19DE4A},%R01350,,,,,,Private,
R01351,WORD,mirror of FV02D_ACT_CB,,YES,,Decimal,0,0,External Read/Write,NO,16,1,Controller,{98D70480-4881-11D4-9F26-0050DA19DE4A},%R01351,,,,,,Private,
R01352,WORD,mirror of FV02D_ACT_OPNC,,YES,,Decimal,0,0,External Read/Write,NO,16,0,Controller,{98D70480-4881-11D4-9F26-0050DA19DE4A},%R01352,,,,,,Private,
R01353,WORD,mirror of FV02D_ACT_CLSC,,YES,,Decimal,0,0,External Read/Write,NO,16,0,Controller,{98D70480-4881-11D4-9F26-0050DA19DE4A},%R01353,,,,,,Private,
R01354,WORD,mirror of FV02D_ACT_ELR,,YES,,Decimal,0,0,External Read/Write,NO,16,1,Controller,{98D70480-4881-11D4-9F26-0050DA19DE4A},%R01354,,,,,,Private,
R01355,WORD,mirror of FV02D_ACT_TOL,,YES,,Decimal,0,0,External Read/Write,NO,16,1,Controller,{98D70480-4881-11D4-9F26-0050DA19DE4A},%R01355,,,,,,Private,
R01356,WORD,mirror of FV02D_LCU_OPN,,YES,,Decimal,0,0,External Read/Write,NO,16,0,Controller,{98D70480-4881-11D4-9F26-0050DA19DE4A},%R01356,,,,,,Private,
R01357,WORD,mirror of FV02D_LCU_CLS,,YES,,Decimal,0,0,External Read/Write,NO,16,0,Controller,{98D70480-4881-11D4-9F26-0050DA19DE4A},%R01357,,,,,,Private,
R01358,WORD,mirror of FV02D_LCU_ISO,,YES,,Decimal,0,0,External Read/Write,NO,16,1,Controller,{98D70480-4881-11D4-9F26-0050DA19DE4A},%R01358,,,,,,Private,
R01359,WORD,mirror of FV02D_ACT_CSW,,YES,,Decimal,0,0,External Read/Write,NO,16,0,Controller,{98D70480-4881-11D4-9F26-0050DA19DE4A},%R01359,,,,,,Private,
R01360,WORD,mirror of FV02D_ACT_OSW,,YES,,Decimal,0,0,External Read/Write,NO,16,1,Controller,{98D70480-4881-11D4-9F26-0050DA19DE4A},%R01360,,,,,,Private,
R01361,WORD,mirror of FV02_STV,,YES,,Decimal,0,0,External Read/Write,NO,16,0,Controller,{98D70480-4881-11D4-9F26-0050DA19DE4A},%R01361,,,,,,Private,
R01362,WORD,mirror of FV03D_CTRP,,YES,,Decimal,0,0,External Read/Write,NO,16,1,Controller,{98D70480-4881-11D4-9F26-0050DA19DE4A},%R01362,,,,,,Private,
R01363,WORD,mirror of FV03D_ACT_CB,,YES,,Decimal,0,0,External Read/Write,NO,16,1,Controller,{98D70480-4881-11D4-9F26-0050DA19DE4A},%R01363,,,,,,Private,
R01364,WORD,mirror of FV03D_ACT_OPNC,,YES,,Decimal,0,0,External Read/Write,NO,16,0,Controller,{98D70480-4881-11D4-9F26-0050DA19DE4A},%R01364,,,,,,Private,
R01365,WORD,mirror of FV03D_ACT_CLSC,,YES,,Decimal,0,0,External Read/Write,NO,16,0,Controller,{98D70480-4881-11D4-9F26-0050DA19DE4A},%R01365,,,,,,Private,
R01366,WORD,mirror of FV03D_ACT_ELR,,YES,,Decimal,0,0,External Read/Write,NO,16,1,Controller,{98D70480-4881-11D4-9F26-0050DA19DE4A},%R01366,,,,,,Private,
R01367,WORD,mirror of FV03D_ACT_TOL,,YES,,Decimal,0,0,External Read/Write,NO,16,1,Controller,{98D70480-4881-11D4-9F26-0050DA19DE4A},%R01367,,,,,,Private,
R01368,WORD,mirror of FV03D_LCU_OPN,,YES,,Decimal,0,0,External Read/Write,NO,16,0,Controller,{98D70480-4881-11D4-9F26-0050DA19DE4A},%R01368,,,,,,Private,
R01369,WORD,mirror of FV03D_LCU_CLS,,YES,,Decimal,0,0,External Read/Write,NO,16,0,Controller,{98D70480-4881-11D4-9F26-0050DA19DE4A},%R01369,,,,,,Private,
R01370,WORD,mirror of FV03D_LCU_ISO,,YES,,Decimal,0,0,External Read/Write,NO,16,1,Controller,{98D70480-4881-11D4-9F26-0050DA19DE4A},%R01370,,,,,,Private,
R01371,WORD,mirror of FV03D_ACT_CSW,,YES,,Decimal,0,0,External Read/Write,NO,16,0,Controller,{98D70480-4881-11D4-9F26-0050DA19DE4A},%R01371,,,,,,Private,
R01372,WORD,mirror of FV03D_ACT_OSW,,YES,,Decimal,0,0,External Read/Write,NO,16,1,Controller,{98D70480-4881-11D4-9F26-0050DA19DE4A},%R01372,,,,,,Private,
R01373,WORD,mirror of FV03_STV,,YES,,Decimal,0,0,External Read/Write,NO,16,0,Controller,{98D70480-4881-11D4-9F26-0050DA19DE4A},%R01373,,,,,,Private,
R01374,WORD,mirror of FV04D_CTRP,,YES,,Decimal,0,0,External Read/Write,NO,16,1,Controller,{98D70480-4881-11D4-9F26-0050DA19DE4A},%R01374,,,,,,Private,
R01375,WORD,mirror of FV04D_ACT_CB,,YES,,Decimal,0,0,External Read/Write,NO,16,1,Controller,{98D70480-4881-11D4-9F26-0050DA19DE4A},%R01375,,,,,,Private,
R01376,WORD,mirror of FV04D_ACT_OPNC,,YES,,Decimal,0,0,External Read/Write,NO,16,0,Controller,{98D70480-4881-11D4-9F26-0050DA19DE4A},%R01376,,,,,,Private,
R01377,WORD,mirror of FV04D_ACT_CLSC,,YES,,Decimal,0,0,External Read/Write,NO,16,0,Controller,{98D70480-4881-11D4-9F26-0050DA19DE4A},%R01377,,,,,,Private,
R01378,WORD,mirror of FV04D_ACT_ELR,,YES,,Decimal,0,0,External Read/Write,NO,16,1,Controller,{98D70480-4881-11D4-9F26-0050DA19DE4A},%R01378,,,,,,Private,
R01379,WORD,mirror of FV04D_ACT_TOL,,YES,,Decimal,0,0,External Read/Write,NO,16,1,Controller,{98D70480-4881-11D4-9F26-0050DA19DE4A},%R01379,,,,,,Private,
R01380,WORD,mirror of FV04D_LCU_OPN,,YES,,Decimal,0,0,External Read/Write,NO,16,0,Controller,{98D70480-4881-11D4-9F26-0050DA19DE4A},%R01380,,,,,,Private,
R01381,WORD,mirror of FV04D_LCU_CLS,,YES,,Decimal,0,0,External Read/Write,NO,16,0,Controller,{98D70480-4881-11D4-9F26-0050DA19DE4A},%R01381,,,,,,Private,
R01382,WORD,mirror of FV04D_LCU_ISO,,YES,,Decimal,0,0,External Read/Write,NO,16,1,Controller,{98D70480-4881-11D4-9F26-0050DA19DE4A},%R01382,,,,,,Private,
R01383,WORD,mirror of FV04D_ACT_CSW,,YES,,Decimal,0,0,External Read/Write,NO,16,0,Controller,{98D70480-4881-11D4-9F26-0050DA19DE4A},%R01383,,,,,,Private,
R01384,WORD,mirror of FV04D_ACT_OSW,,YES,,Decimal,0,0,External Read/Write,NO,16,1,Controller,{98D70480-4881-11D4-9F26-0050DA19DE4A},%R01384,,,,,,Private,
R01385,WORD,mirror of FV04_STV,,YES,,Decimal,0,0,External Read/Write,NO,16,0,Controller,{98D70480-4881-11D4-9F26-0050DA19DE4A},%R01385,,,,,,Private,
R01386,WORD,mirror of RLF_FIP_GAS_ISOLATED,,YES,,Decimal,0,0,External Read/Write,NO,16,0,Controller,{98D70480-4881-11D4-9F26-0050DA19DE4A},%R01386,,,,,,Private,
R01387,WORD,mirror of BN02_CTRP,,YES,,Decimal,0,0,External Read/Write,NO,16,1,Controller,{98D70480-4881-11D4-9F26-0050DA19DE4A},%R01387,,,,,,Private,
R01388,WORD,mirror of BN02_MTR_CB,,YES,,Decimal,0,0,External Read/Write,NO,16,1,Controller,{98D70480-4881-11D4-9F26-0050DA19DE4A},%R01388,,,,,,Private,
R01389,WORD,mirror of BN02_MTR_CONT,,YES,,Decimal,0,0,External Read/Write,NO,16,0,Controller,{98D70480-4881-11D4-9F26-0050DA19DE4A},%R01389,,,,,,Private,
R01390,WORD,mirror of BN02_MTR_ELR,,YES,,Decimal,0,0,External Read/Write,NO,16,1,Controller,{98D70480-4881-11D4-9F26-0050DA19DE4A},%R01390,,,,,,Private,
R01391,WORD,mirror of BN02_MTR_TOL,,YES,,Decimal,0,0,External Read/Write,NO,16,0,Controller,{98D70480-4881-11D4-9F26-0050DA19DE4A},%R01391,,,,,,Private,
R01392,WORD,mirror of BN02_MTR_THM,,YES,,Decimal,0,0,External Read/Write,NO,16,0,Controller,{98D70480-4881-11D4-9F26-0050DA19DE4A},%R01392,,,,,,Private,
R01393,WORD,mirror of BN02_LCU_STRT,,YES,,Decimal,0,0,External Read/Write,NO,16,0,Controller,{98D70480-4881-11D4-9F26-0050DA19DE4A},%R01393,,,,,,Private,
R01394,WORD,mirror of BN02_LCU_NISO,,YES,,Decimal,0,0,External Read/Write,NO,16,1,Controller,{98D70480-4881-11D4-9F26-0050DA19DE4A},%R01394,,,,,,Private,
R01395,WORD,mirror of BN02_LCU_ESP,,YES,,Decimal,0,0,External Read/Write,NO,16,0,Controller,{98D70480-4881-11D4-9F26-0050DA19DE4A},%R01395,,,,,,Private,
R01396,WORD,mirror of SA02_CTRP,,YES,,Decimal,0,0,External Read/Write,NO,16,1,Controller,{98D70480-4881-11D4-9F26-0050DA19DE4A},%R01396,,,,,,Private,
R01397,WORD,mirror of SA02_ELR,,YES,,Decimal,0,0,External Read/Write,NO,16,1,Controller,{98D70480-4881-11D4-9F26-0050DA19DE4A},%R01397,,,,,,Private,
R01398,WORD,mirror of SA02_ESP1,,YES,,Decimal,0,0,External Read/Write,NO,16,0,Controller,{98D70480-4881-11D4-9F26-0050DA19DE4A},%R01398,,,,,,Private,
R01399,WORD,mirror of SA02_ESP2,,YES,,Decimal,0,0,External Read/Write,NO,16,0,Controller,{98D70480-4881-11D4-9F26-0050DA19DE4A},%R01399,,,,,,Private,
R01400,WORD,mirror of SA02_ESP3A,,YES,,Decimal,0,0,External Read/Write,NO,16,0,Controller,{98D70480-4881-11D4-9F26-0050DA19DE4A},%R01400,,,,,,Private,
R01401,WORD,mirror of SA02_ESP3B,,YES,,Decimal,0,0,External Read/Write,NO,16,0,Controller,{98D70480-4881-11D4-9F26-0050DA19DE4A},%R01401,,,,,,Private,
R01402,WORD,mirror of SA02A_MTR_CB,,YES,,Decimal,0,0,External Read/Write,NO,16,1,Controller,{98D70480-4881-11D4-9F26-0050DA19DE4A},%R01402,,,,,,Private,
R01403,WORD,mirror of SA02A_MTR_CONT,,YES,,Decimal,0,0,External Read/Write,NO,16,0,Controller,{98D70480-4881-11D4-9F26-0050DA19DE4A},%R01403,,,,,,Private,
R01404,WORD,mirror of SA02A_MTR_TOL,,YES,,Decimal,0,0,External Read/Write,NO,16,0,Controller,{98D70480-4881-11D4-9F26-0050DA19DE4A},%R01404,,,,,,Private,
R01405,WORD,mirror of SA02A_MTR_THM,,YES,,Decimal,0,0,External Read/Write,NO,16,0,Controller,{98D70480-4881-11D4-9F26-0050DA19DE4A},%R01405,,,,,,Private,
R01406,WORD,mirror of SA02A_LCU_STRT,,YES,,Decimal,0,0,External Read/Write,NO,16,0,Controller,{98D70480-4881-11D4-9F26-0050DA19DE4A},%R01406,,,,,,Private,
R01407,WORD,mirror of SA02A_LCU_ISO,,YES,,Decimal,0,0,External Read/Write,NO,16,1,Controller,{98D70480-4881-11D4-9F26-0050DA19DE4A},%R01407,,,,,,Private,
R01408,WORD,mirror of SA02A_OBL,,YES,,Decimal,0,0,External Read/Write,NO,16,1,Controller,{98D70480-4881-11D4-9F26-0050DA19DE4A},%R01408,,,,,,Private,
R01409,WORD,mirror of CV05_MTR_CB,,YES,,Decimal,0,0,External Read/Write,NO,16,1,Controller,{98D70480-4881-11D4-9F26-0050DA19DE4A},%R01409,,,,,,Private,
R01410,WORD,mirror of CV05_MTR_CONT,,YES,,Decimal,0,0,External Read/Write,NO,16,0,Controller,{98D70480-4881-11D4-9F26-0050DA19DE4A},%R01410,,,,,,Private,
R01411,WORD,mirror of CV05_MTR_TOL,,YES,,Decimal,0,0,External Read/Write,NO,16,0,Controller,{98D70480-4881-11D4-9F26-0050DA19DE4A},%R01411,,,,,,Private,
R01412,WORD,mirror of CV05_LCU_STRT,,YES,,Decimal,0,0,External Read/Write,NO,16,0,Controller,{98D70480-4881-11D4-9F26-0050DA19DE4A},%R01412,,,,,,Private,
R01413,WORD,mirror of CV05_LCU_ISO,,YES,,Decimal,0,0,External Read/Write,NO,16,1,Controller,{98D70480-4881-11D4-9F26-0050DA19DE4A},%R01413,,,,,,Private,
R01414,WORD,mirror of CV05_PULLSW1A,,YES,,Decimal,0,0,External Read/Write,NO,16,0,Controller,{98D70480-4881-11D4-9F26-0050DA19DE4A},%R01414,,,,,,Private,
R01415,WORD,mirror of CV05_PULLSW1B,,YES,,Decimal,0,0,External Read/Write,NO,16,0,Controller,{98D70480-4881-11D4-9F26-0050DA19DE4A},%R01415,,,,,,Private,
R01416,WORD,mirror of SA02B_MTR_CB,,YES,,Decimal,0,0,External Read/Write,NO,16,1,Controller,{98D70480-4881-11D4-9F26-0050DA19DE4A},%R01416,,,,,,Private,
R01417,WORD,mirror of SA02B_MTR_FWDC,,YES,,Decimal,0,0,External Read/Write,NO,16,0,Controller,{98D70480-4881-11D4-9F26-0050DA19DE4A},%R01417,,,,,,Private,
R01418,WORD,mirror of SA02B_MTR_TOL,,YES,,Decimal,0,0,External Read/Write,NO,16,0,Controller,{98D70480-4881-11D4-9F26-0050DA19DE4A},%R01418,,,,,,Private,
R01419,WORD,mirror of SA02B_LCU_STRTFWD,,YES,,Decimal,0,0,External Read/Write,NO,16,0,Controller,{98D70480-4881-11D4-9F26-0050DA19DE4A},%R01419,,,,,,Private,
R01420,WORD,mirror of SA02B_LCU_STRTREV,,YES,,Decimal,0,0,External Read/Write,NO,16,0,Controller,{98D70480-4881-11D4-9F26-0050DA19DE4A},%R01420,,,,,,Private,
R01421,WORD,mirror of SA02B_LCU_ISO,,YES,,Decimal,0,0,External Read/Write,NO,16,1,Controller,{98D70480-4881-11D4-9F26-0050DA19DE4A},%R01421,,,,,,Private,
R01422,WORD,mirror of SA02C_MTR_CB,,YES,,Decimal,0,0,External Read/Write,NO,16,1,Controller,{98D70480-4881-11D4-9F26-0050DA19DE4A},%R01422,,,,,,Private,
R01423,WORD,mirror of SA02C_MTR_CONT,,YES,,Decimal,0,0,External Read/Write,NO,16,0,Controller,{98D70480-4881-11D4-9F26-0050DA19DE4A},%R01423,,,,,,Private,
R01424,WORD,mirror of SA02C_MTR_TOL,,YES,,Decimal,0,0,External Read/Write,NO,16,0,Controller,{98D70480-4881-11D4-9F26-0050DA19DE4A},%R01424,,,,,,Private,
R01425,WORD,mirror of SA02C_LCU_STRT,,YES,,Decimal,0,0,External Read/Write,NO,16,0,Controller,{98D70480-4881-11D4-9F26-0050DA19DE4A},%R01425,,,,,,Private,
R01426,WORD,mirror of SA02C_LCU_ISO,,YES,,Decimal,0,0,External Read/Write,NO,16,1,Controller,{98D70480-4881-11D4-9F26-0050DA19DE4A},%R01426,,,,,,Private,
R01427,WORD,mirror of SA02D_MTR_CB,,YES,,Decimal,0,0,External Read/Write,NO,16,1,Controller,{98D70480-4881-11D4-9F26-0050DA19DE4A},%R01427,,,,,,Private,
R01428,WORD,mirror of SA02D_MTR_CONT,,YES,,Decimal,0,0,External Read/Write,NO,16,0,Controller,{98D70480-4881-11D4-9F26-0050DA19DE4A},%R01428,,,,,,Private,
R01429,WORD,mirror of SA02D_MTR_TOL,,YES,,Decimal,0,0,External Read/Write,NO,16,0,Controller,{98D70480-4881-11D4-9F26-0050DA19DE4A},%R01429,,,,,,Private,
R01430,WORD,mirror of SA02D_LCU_STRT,,YES,,Decimal,0,0,External Read/Write,NO,16,0,Controller,{98D70480-4881-11D4-9F26-0050DA19DE4A},%R01430,,,,,,Private,
R01431,WORD,mirror of SA02D_LCU_ISO,,YES,,Decimal,0,0,External Read/Write,NO,16,1,Controller,{98D70480-4881-11D4-9F26-0050DA19DE4A},%R01431,,,,,,Private,
R01432,WORD,mirror of SA02D_PRK,,YES,,Decimal,0,0,External Read/Write,NO,16,1,Controller,{98D70480-4881-11D4-9F26-0050DA19DE4A},%R01432,,,,,,Private,
R01433,WORD,mirror of SA02E_MTR_CB,,YES,,Decimal,0,0,External Read/Write,NO,16,1,Controller,{98D70480-4881-11D4-9F26-0050DA19DE4A},%R01433,,,,,,Private,
R01434,WORD,mirror of SA02E_MTR_CONT,,YES,,Decimal,0,0,External Read/Write,NO,16,0,Controller,{98D70480-4881-11D4-9F26-0050DA19DE4A},%R01434,,,,,,Private,
R01435,WORD,mirror of SA02E_MTR_TOL,,YES,,Decimal,0,0,External Read/Write,NO,16,0,Controller,{98D70480-4881-11D4-9F26-0050DA19DE4A},%R01435,,,,,,Private,
R01436,WORD,mirror of SA02E_LCU_STRT,,YES,,Decimal,0,0,External Read/Write,NO,16,0,Controller,{98D70480-4881-11D4-9F26-0050DA19DE4A},%R01436,,,,,,Private,
R01437,WORD,mirror of SA02E_LCU_ISO,,YES,,Decimal,0,0,External Read/Write,NO,16,1,Controller,{98D70480-4881-11D4-9F26-0050DA19DE4A},%R01437,,,,,,Private,
R01438,WORD,mirror of SA02E_SW_CAN,,YES,,Decimal,0,0,External Read/Write,NO,16,0,Controller,{98D70480-4881-11D4-9F26-0050DA19DE4A},%R01438,,,,,,Private,
R01439,WORD,mirror of SA02E_SW_FIRSTCAN,,YES,,Decimal,0,0,External Read/Write,NO,16,0,Controller,{98D70480-4881-11D4-9F26-0050DA19DE4A},%R01439,,,,,,Private,
R01440,WORD,mirror of SA02E_RESET,,YES,,Decimal,0,0,External Read/Write,NO,16,0,Controller,{98D70480-4881-11D4-9F26-0050DA19DE4A},%R01440,,,,,,Private,
R01441,WORD,mirror of SA02E_DOOR_LIM,,YES,,Decimal,0,0,External Read/Write,NO,16,0,Controller,{98D70480-4881-11D4-9F26-0050DA19DE4A},%R01441,,,,,,Private,
R01442,WORD,mirror of CV04_WGH07_FLT,,YES,,Decimal,0,0,External Read/Write,NO,16,1,Controller,{98D70480-4881-11D4-9F26-0050DA19DE4A},%R01442,,,,,,Private,
R01443,WORD,mirror of RLF_SUB_MCCCB1_CLD,,YES,,Decimal,0,0,External Read/Write,NO,16,1,Controller,{98D70480-4881-11D4-9F26-0050DA19DE4A},%R01443,,,,,,Private,
R01444,WORD,mirror of RLF_SUB_MCCCB1_POSITN,,YES,,Decimal,0,0,External Read/Write,NO,16,1,Controller,{98D70480-4881-11D4-9F26-0050DA19DE4A},%R01444,,,,,,Private,
R01445,WORD,mirror of RLF_SUB_MCCCB1_ELR,,YES,,Decimal,0,0,External Read/Write,NO,16,1,Controller,{98D70480-4881-11D4-9F26-0050DA19DE4A},%R01445,,,,,,Private,
R01446,WORD,mirror of RLF_SUB_PM_KWHRS,,YES,,Decimal,0,0,External Read/Write,NO,16,0,Controller,{98D70480-4881-11D4-9F26-0050DA19DE4A},%R01446,,,,,,Private,
R01447,WORD,mirror of RLF_SUB_ESP1,,YES,,Decimal,0,0,External Read/Write,NO,16,0,Controller,{98D70480-4881-11D4-9F26-0050DA19DE4A},%R01447,,,,,,Private,
R01448,WORD,mirror of RLF_SUB_ESP2,,YES,,Decimal,0,0,External Read/Write,NO,16,0,Controller,{98D70480-4881-11D4-9F26-0050DA19DE4A},%R01448,,,,,,Private,
R01449,WORD,mirror of TX04_TMPHIGH,,YES,,Decimal,0,0,External Read/Write,NO,16,0,Controller,{98D70480-4881-11D4-9F26-0050DA19DE4A},%R01449,,,,,,Private,
R01450,WORD,mirror of TX04_PRHIGH,,YES,,Decimal,0,0,External Read/Write,NO,16,0,Controller,{98D70480-4881-11D4-9F26-0050DA19DE4A},%R01450,,,,,,Private,
R01451,WORD,mirror of TX04_VNT_OPN,,YES,,Decimal,0,0,External Read/Write,NO,16,0,Controller,{98D70480-4881-11D4-9F26-0050DA19DE4A},%R01451,,,,,,Private,
R01452,WORD,mirror of RLF_CTRL_ROOM_ESP,,YES,,Decimal,0,0,External Read/Write,NO,16,0,Controller,{98D70480-4881-11D4-9F26-0050DA19DE4A},%R01452,,,,,,Private,
R01453,WORD,mirror of RLF_SUB_UPS_BATTLOW,,YES,,Decimal,0,0,External Read/Write,NO,16,0,Controller,{98D70480-4881-11D4-9F26-0050DA19DE4A},%R01453,,,,,,Private,
R01454,WORD,mirror of RLF_SUB_FIRE_ALARM,,YES,,Decimal,0,0,External Read/Write,NO,16,0,Controller,{98D70480-4881-11D4-9F26-0050DA19DE4A},%R01454,,,,,,Private,
R01455,WORD,mirror of RLF_SUB_FIRE_FLT,,YES,,Decimal,0,0,External Read/Write,NO,16,0,Controller,{98D70480-4881-11D4-9F26-0050DA19DE4A},%R01455,,,,,,Private,
R01456,WORD,mirror of RLF_SUB_UPS_BATTON,,YES,,Decimal,0,0,External Read/Write,NO,16,1,Controller,{98D70480-4881-11D4-9F26-0050DA19DE4A},%R01456,,,,,,Private,
R01457,WORD,mirror of RLF_SUB_UPS_BYP,,YES,,Decimal,0,0,External Read/Write,NO,16,1,Controller,{98D70480-4881-11D4-9F26-0050DA19DE4A},%R01457,,,,,,Private,
R01458,WORD,mirror of RLF_SUB_UPS_FLT,,YES,,Decimal,0,0,External Read/Write,NO,16,1,Controller,{98D70480-4881-11D4-9F26-0050DA19DE4A},%R01458,,,,,,Private,
R01459,WORD,mirror of BN02_PRLOW,,YES,,Decimal,0,0,External Read/Write,NO,16,0,Controller,{98D70480-4881-11D4-9F26-0050DA19DE4A},%R01459,,,,,,Private,
R01460,WORD,mirror of CV04_BIN_LVLHI,,YES,,Decimal,0,0,External Read/Write,NO,16,1,Controller,{98D70480-4881-11D4-9F26-0050DA19DE4A},%R01460,,,,,,Private,
R01461,WORD,mirror of CV04_WGH05_FLT,,YES,,Decimal,0,0,External Read/Write,NO,16,1,Controller,{98D70480-4881-11D4-9F26-0050DA19DE4A},%R01461,,,,,,Private,
R01462,WORD,mirror of CV04_WGH05_INC,,YES,,Decimal,0,0,External Read/Write,NO,16,0,Controller,{98D70480-4881-11D4-9F26-0050DA19DE4A},%R01462,,,,,,Private,
R01463,WORD,mirror of CV04_WGH04_FLT,,YES,,Decimal,0,0,External Read/Write,NO,16,1,Controller,{98D70480-4881-11D4-9F26-0050DA19DE4A},%R01463,,,,,,Private,
R01464,WORD,mirror of CV04_WGH04_INC,,YES,,Decimal,0,0,External Read/Write,NO,16,0,Controller,{98D70480-4881-11D4-9F26-0050DA19DE4A},%R01464,,,,,,Private,
R01465,WORD,mirror of CV04_WGH03_FLT,,YES,,Decimal,0,0,External Read/Write,NO,16,1,Controller,{98D70480-4881-11D4-9F26-0050DA19DE4A},%R01465,,,,,,Private,
R01466,WORD,mirror of CV04_WGH03_INC,,YES,,Decimal,0,0,External Read/Write,NO,16,0,Controller,{98D70480-4881-11D4-9F26-0050DA19DE4A},%R01466,,,,,,Private,
R01467,WORD,mirror of CV04_WGH02_FLT,,YES,,Decimal,0,0,External Read/Write,NO,16,1,Controller,{98D70480-4881-11D4-9F26-0050DA19DE4A},%R01467,,,,,,Private,
R01468,WORD,mirror of CV04_WGH02_INC,,YES,,Decimal,0,0,External Read/Write,NO,16,0,Controller,{98D70480-4881-11D4-9F26-0050DA19DE4A},%R01468,,,,,,Private,
R01469,WORD,mirror of RLF_SUB_TNLFIRE,,YES,,Decimal,0,0,External Read/Write,NO,16,0,Controller,{98D70480-4881-11D4-9F26-0050DA19DE4A},%R01469,,,,,,Private,
R01470,WORD,mirror of RLF_SUB_MAINFIP_FLT,,YES,,Decimal,0,0,External Read/Write,NO,16,0,Controller,{98D70480-4881-11D4-9F26-0050DA19DE4A},%R01470,,,,,,Private,
R01471,WORD,mirror of CV04_WGH07_INC,,YES,,Decimal,0,0,External Read/Write,NO,16,0,Controller,{98D70480-4881-11D4-9F26-0050DA19DE4A},%R01471,,,,,,Private,
R01472,WORD,mirror of RLF_SUB2_ESP1,,YES,,Decimal,0,0,External Read/Write,NO,16,0,Controller,{98D70480-4881-11D4-9F26-0050DA19DE4A},%R01472,,,,,,Private,
R01473,WORD,mirror of RLF_SUB2_ESP2,,YES,,Decimal,0,0,External Read/Write,NO,16,0,Controller,{98D70480-4881-11D4-9F26-0050DA19DE4A},%R01473,,,,,,Private,
R01474,WORD,mirror of RLF_CTRL_ROOM_ESP2,,YES,,Decimal,0,0,External Read/Write,NO,16,0,Controller,{98D70480-4881-11D4-9F26-0050DA19DE4A},%R01474,,,,,,Private,
R01475,WORD,mirror of FV05A_CTRP,,YES,,Decimal,0,0,External Read/Write,NO,16,1,Controller,{98D70480-4881-11D4-9F26-0050DA19DE4A},%R01475,,,,,,Private,
R01476,WORD,mirror of FV05A_MTR_CB,,YES,,Decimal,0,0,External Read/Write,NO,16,1,Controller,{98D70480-4881-11D4-9F26-0050DA19DE4A},%R01476,,,,,,Private,
R01477,WORD,mirror of FV05A_MTR_CONT,,YES,,Decimal,0,0,External Read/Write,NO,16,0,Controller,{98D70480-4881-11D4-9F26-0050DA19DE4A},%R01477,,,,,,Private,
R01478,WORD,mirror of FV05A_MTR_ELR,,YES,,Decimal,0,0,External Read/Write,NO,16,1,Controller,{98D70480-4881-11D4-9F26-0050DA19DE4A},%R01478,,,,,,Private,
R01479,WORD,mirror of FV05A_MTR_TOL,,YES,,Decimal,0,0,External Read/Write,NO,16,0,Controller,{98D70480-4881-11D4-9F26-0050DA19DE4A},%R01479,,,,,,Private,
R01480,WORD,mirror of FV05A_MTR_THM,,YES,,Decimal,0,0,External Read/Write,NO,16,0,Controller,{98D70480-4881-11D4-9F26-0050DA19DE4A},%R01480,,,,,,Private,
R01481,WORD,mirror of FV05_LCU_STRT,,YES,,Decimal,0,0,External Read/Write,NO,16,0,Controller,{98D70480-4881-11D4-9F26-0050DA19DE4A},%R01481,,,,,,Private,
R01482,WORD,mirror of FV05A_LCU_ISO,,YES,,Decimal,0,0,External Read/Write,NO,16,1,Controller,{98D70480-4881-11D4-9F26-0050DA19DE4A},%R01482,,,,,,Private,
R01483,WORD,mirror of FV05_LCU_ESP,,YES,,Decimal,0,0,External Read/Write,NO,16,0,Controller,{98D70480-4881-11D4-9F26-0050DA19DE4A},%R01483,,,,,,Private,
R01484,WORD,mirror of FV05B_CTRP,,YES,,Decimal,0,0,External Read/Write,NO,16,1,Controller,{98D70480-4881-11D4-9F26-0050DA19DE4A},%R01484,,,,,,Private,
R01485,WORD,mirror of FV05B_MTR_CB,,YES,,Decimal,0,0,External Read/Write,NO,16,1,Controller,{98D70480-4881-11D4-9F26-0050DA19DE4A},%R01485,,,,,,Private,
R01486,WORD,mirror of FV05B_MTR_CONT,,YES,,Decimal,0,0,External Read/Write,NO,16,0,Controller,{98D70480-4881-11D4-9F26-0050DA19DE4A},%R01486,,,,,,Private,
R01487,WORD,mirror of FV05B_MTR_ELR,,YES,,Decimal,0,0,External Read/Write,NO,16,1,Controller,{98D70480-4881-11D4-9F26-0050DA19DE4A},%R01487,,,,,,Private,
R01488,WORD,mirror of FV05B_MTR_TOL,,YES,,Decimal,0,0,External Read/Write,NO,16,0,Controller,{98D70480-4881-11D4-9F26-0050DA19DE4A},%R01488,,,,,,Private,
R01489,WORD,mirror of FV05B_MTR_THM,,YES,,Decimal,0,0,External Read/Write,NO,16,0,Controller,{98D70480-4881-11D4-9F26-0050DA19DE4A},%R01489,,,,,,Private,
R01490,WORD,mirror of FV05B_LCU_ISO,,YES,,Decimal,0,0,External Read/Write,NO,16,1,Controller,{98D70480-4881-11D4-9F26-0050DA19DE4A},%R01490,,,,,,Private,
R01491,WORD,mirror of FV05C_CTRP,,YES,,Decimal,0,0,External Read/Write,NO,16,1,Controller,{98D70480-4881-11D4-9F26-0050DA19DE4A},%R01491,,,,,,Private,
R01492,WORD,mirror of FV05C_ACT_CB,,YES,,Decimal,0,0,External Read/Write,NO,16,1,Controller,{98D70480-4881-11D4-9F26-0050DA19DE4A},%R01492,,,,,,Private,
R01493,WORD,mirror of FV05C_ACT_OPNC,,YES,,Decimal,0,0,External Read/Write,NO,16,0,Controller,{98D70480-4881-11D4-9F26-0050DA19DE4A},%R01493,,,,,,Private,
R01494,WORD,mirror of FV05C_ACT_CLSC,,YES,,Decimal,0,0,External Read/Write,NO,16,0,Controller,{98D70480-4881-11D4-9F26-0050DA19DE4A},%R01494,,,,,,Private,
R01495,WORD,mirror of FV05C_ACT_ELR,,YES,,Decimal,0,0,External Read/Write,NO,16,1,Controller,{98D70480-4881-11D4-9F26-0050DA19DE4A},%R01495,,,,,,Private,
R01496,WORD,mirror of FV05C_ACT_EOL,,YES,,Decimal,0,0,External Read/Write,NO,16,1,Controller,{98D70480-4881-11D4-9F26-0050DA19DE4A},%R01496,,,,,,Private,
R01497,WORD,mirror of FV05C_LCU_OPN,,YES,,Decimal,0,0,External Read/Write,NO,16,0,Controller,{98D70480-4881-11D4-9F26-0050DA19DE4A},%R01497,,,,,,Private,
R01498,WORD,mirror of FV05C_LCU_CLS,,YES,,Decimal,0,0,External Read/Write,NO,16,0,Controller,{98D70480-4881-11D4-9F26-0050DA19DE4A},%R01498,,,,,,Private,
R01499,WORD,mirror of FV05C_LCU_ISO,,YES,,Decimal,0,0,External Read/Write,NO,16,1,Controller,{98D70480-4881-11D4-9F26-0050DA19DE4A},%R01499,,,,,,Private,
R01500,WORD,mirror of FV05C_ACT_OSW,,YES,,Decimal,0,0,External Read/Write,NO,16,1,Controller,{98D70480-4881-11D4-9F26-0050DA19DE4A},%R01500,,,,,,Private,
R01501,WORD,mirror of FV05C_ACT_CSW,,YES,,Decimal,0,0,External Read/Write,NO,16,0,Controller,{98D70480-4881-11D4-9F26-0050DA19DE4A},%R01501,,,,,,Private,
R01502,WORD,mirror of FV05D_CTRP,,YES,,Decimal,0,0,External Read/Write,NO,16,1,Controller,{98D70480-4881-11D4-9F26-0050DA19DE4A},%R01502,,,,,,Private,
R01503,WORD,mirror of FV05D_ACT_CB,,YES,,Decimal,0,0,External Read/Write,NO,16,1,Controller,{98D70480-4881-11D4-9F26-0050DA19DE4A},%R01503,,,,,,Private,
R01504,WORD,mirror of FV05D_ACT_OPNC,,YES,,Decimal,0,0,External Read/Write,NO,16,0,Controller,{98D70480-4881-11D4-9F26-0050DA19DE4A},%R01504,,,,,,Private,
R01505,WORD,mirror of FV05D_ACT_CLSC,,YES,,Decimal,0,0,External Read/Write,NO,16,0,Controller,{98D70480-4881-11D4-9F26-0050DA19DE4A},%R01505,,,,,,Private,
R01506,WORD,mirror of FV05D_ACT_ELR,,YES,,Decimal,0,0,External Read/Write,NO,16,1,Controller,{98D70480-4881-11D4-9F26-0050DA19DE4A},%R01506,,,,,,Private,
R01507,WORD,mirror of FV05D_ACT_TOL,,YES,,Decimal,0,0,External Read/Write,NO,16,1,Controller,{98D70480-4881-11D4-9F26-0050DA19DE4A},%R01507,,,,,,Private,
R01508,WORD,mirror of FV05D_LCU_OPN,,YES,,Decimal,0,0,External Read/Write,NO,16,0,Controller,{98D70480-4881-11D4-9F26-0050DA19DE4A},%R01508,,,,,,Private,
R01509,WORD,mirror of FV05D_LCU_CLS,,YES,,Decimal,0,0,External Read/Write,NO,16,0,Controller,{98D70480-4881-11D4-9F26-0050DA19DE4A},%R01509,,,,,,Private,
R01510,WORD,mirror of FV05D_LCU_ISO,,YES,,Decimal,0,0,External Read/Write,NO,16,1,Controller,{98D70480-4881-11D4-9F26-0050DA19DE4A},%R01510,,,,,,Private,
R01511,WORD,mirror of FV05D_ACT_CSW,,YES,,Decimal,0,0,External Read/Write,NO,16,0,Controller,{98D70480-4881-11D4-9F26-0050DA19DE4A},%R01511,,,,,,Private,
R01512,WORD,mirror of FV05D_ACT_OSW,,YES,,Decimal,0,0,External Read/Write,NO,16,1,Controller,{98D70480-4881-11D4-9F26-0050DA19DE4A},%R01512,,,,,,Private,
R01513,WORD,mirror of FV05_STV,,YES,,Decimal,0,0,External Read/Write,NO,16,0,Controller,{98D70480-4881-11D4-9F26-0050DA19DE4A},%R01513,,,,,,Private,
R01514,WORD,mirror of FV05D_ACT_OOTSW,,YES,,Decimal,0,0,External Read/Write,NO,16,1,Controller,{98D70480-4881-11D4-9F26-0050DA19DE4A},%R01514,,,,,,Private,
R01515,WORD,mirror of FV05D_ACT_COTSW,,YES,,Decimal,0,0,External Read/Write,NO,16,1,Controller,{98D70480-4881-11D4-9F26-0050DA19DE4A},%R01515,,,,,,Private,
R01516,WORD,mirror of FN01_CTRP,,YES,,Decimal,0,0,External Read/Write,NO,16,1,Controller,{98D70480-4881-11D4-9F26-0050DA19DE4A},%R01516,,,,,,Private,
R01517,WORD,mirror of FN01_MTR_CB,,YES,,Decimal,0,0,External Read/Write,NO,16,1,Controller,{98D70480-4881-11D4-9F26-0050DA19DE4A},%R01517,,,,,,Private,
R01518,WORD,mirror of FN01_MTR_CONT,,YES,,Decimal,0,0,External Read/Write,NO,16,1,Controller,{98D70480-4881-11D4-9F26-0050DA19DE4A},%R01518,,,,,,Private,
R01519,WORD,mirror of FN01_MTR_ELR,,YES,,Decimal,0,0,External Read/Write,NO,16,1,Controller,{98D70480-4881-11D4-9F26-0050DA19DE4A},%R01519,,,,,,Private,
R01520,WORD,mirror of FN01_MTR_TOL,,YES,,Decimal,0,0,External Read/Write,NO,16,0,Controller,{98D70480-4881-11D4-9F26-0050DA19DE4A},%R01520,,,,,,Private,
R01521,WORD,mirror of FN01_LCU_STRT,,YES,,Decimal,0,0,External Read/Write,NO,16,0,Controller,{98D70480-4881-11D4-9F26-0050DA19DE4A},%R01521,,,,,,Private,
R01522,WORD,mirror of FN01_LCU_ISO,,YES,,Decimal,0,0,External Read/Write,NO,16,1,Controller,{98D70480-4881-11D4-9F26-0050DA19DE4A},%R01522,,,,,,Private,
R01523,WORD,mirror of FN01_LCU_ESP,,YES,,Decimal,0,0,External Read/Write,NO,16,0,Controller,{98D70480-4881-11D4-9F26-0050DA19DE4A},%R01523,,,,,,Private,
R01524,WORD,mirror of FN01_FLWLOW,,YES,,Decimal,0,0,External Read/Write,NO,16,1,Controller,{98D70480-4881-11D4-9F26-0050DA19DE4A},%R01524,,,,,,Private,
R01525,WORD,mirror of ETH_LAN_OK,,YES,,Decimal,0,0,External Read/Write,NO,16,1,Controller,{98D70480-4881-11D4-9F26-0050DA19DE4A},%R01525,,,,,,Private,
R01526,WORD,mirror of ETH_IFACE_OK,,YES,,Decimal,0,0,External Read/Write,NO,16,1,Controller,{98D70480-4881-11D4-9F26-0050DA19DE4A},%R01526,,,,,,Private,
R01527,WORD,mirror of ETH_CH1_OPN,,YES,,Decimal,0,0,External Read/Write,NO,16,0,Controller,{98D70480-4881-11D4-9F26-0050DA19DE4A},%R01527,,,,,,Private,
R01528,WORD,mirror of CV04_MTR1_ENB,,YES,,Decimal,0,0,External Read/Write,NO,16,1,Controller,{98D70480-4881-11D4-9F26-0050DA19DE4A},%R01528,,,,,,Private,
R01529,WORD,mirror of CV04_WH,,YES,,Decimal,0,0,External Read/Write,NO,16,0,Controller,{98D70480-4881-11D4-9F26-0050DA19DE4A},%R01529,,,,,,Private,
R01530,WORD,mirror of CV04_BRK1_FWD,,YES,,Decimal,0,0,External Read/Write,NO,16,0,Controller,{98D70480-4881-11D4-9F26-0050DA19DE4A},%R01530,,,,,,Private,
R01531,WORD,mirror of CV04_BRK1_RLS,,YES,,Decimal,0,0,External Read/Write,NO,16,0,Controller,{98D70480-4881-11D4-9F26-0050DA19DE4A},%R01531,,,,,,Private,
R01532,WORD,mirror of CV04_MTR2_ENB,,YES,,Decimal,0,0,External Read/Write,NO,16,1,Controller,{98D70480-4881-11D4-9F26-0050DA19DE4A},%R01532,,,,,,Private,
R01533,WORD,mirror of CV04_BRK2_FWD,,YES,,Decimal,0,0,External Read/Write,NO,16,0,Controller,{98D70480-4881-11D4-9F26-0050DA19DE4A},%R01533,,,,,,Private,
R01534,WORD,mirror of CV04_BRK2_RLS,,YES,,Decimal,0,0,External Read/Write,NO,16,0,Controller,{98D70480-4881-11D4-9F26-0050DA19DE4A},%R01534,,,,,,Private,
R01535,WORD,mirror of FV01A_MTR_FWD,,YES,,Decimal,0,0,External Read/Write,NO,16,0,Controller,{98D70480-4881-11D4-9F26-0050DA19DE4A},%R01535,,,,,,Private,
R01536,WORD,mirror of FV01B_MTR_FWD,,YES,,Decimal,0,0,External Read/Write,NO,16,0,Controller,{98D70480-4881-11D4-9F26-0050DA19DE4A},%R01536,,,,,,Private,
R01537,WORD,mirror of FV01C_ACT_FWD,,YES,,Decimal,0,0,External Read/Write,NO,16,0,Controller,{98D70480-4881-11D4-9F26-0050DA19DE4A},%R01537,,,,,,Private,
R01538,WORD,mirror of FV01C_ACT_REV,,YES,,Decimal,0,0,External Read/Write,NO,16,0,Controller,{98D70480-4881-11D4-9F26-0050DA19DE4A},%R01538,,,,,,Private,
R01539,WORD,mirror of FV01D_ACT_FWD,,YES,,Decimal,0,0,External Read/Write,NO,16,0,Controller,{98D70480-4881-11D4-9F26-0050DA19DE4A},%R01539,,,,,,Private,
R01540,WORD,mirror of FV01D_ACT_REV,,YES,,Decimal,0,0,External Read/Write,NO,16,0,Controller,{98D70480-4881-11D4-9F26-0050DA19DE4A},%R01540,,,,,,Private,
R01541,WORD,mirror of FV02A_MTR_FWD,,YES,,Decimal,0,0,External Read/Write,NO,16,0,Controller,{98D70480-4881-11D4-9F26-0050DA19DE4A},%R01541,,,,,,Private,
R01542,WORD,mirror of FV02B_MTR_FWD,,YES,,Decimal,0,0,External Read/Write,NO,16,0,Controller,{98D70480-4881-11D4-9F26-0050DA19DE4A},%R01542,,,,,,Private,
R01543,WORD,mirror of FV02C_ACT_FWD,,YES,,Decimal,0,0,External Read/Write,NO,16,0,Controller,{98D70480-4881-11D4-9F26-0050DA19DE4A},%R01543,,,,,,Private,
R01544,WORD,mirror of FV02C_ACT_REV,,YES,,Decimal,0,0,External Read/Write,NO,16,0,Controller,{98D70480-4881-11D4-9F26-0050DA19DE4A},%R01544,,,,,,Private,
R01545,WORD,mirror of FV02D_ACT_FWD,,YES,,Decimal,0,0,External Read/Write,NO,16,0,Controller,{98D70480-4881-11D4-9F26-0050DA19DE4A},%R01545,,,,,,Private,
R01546,WORD,mirror of FV02D_ACT_REV,,YES,,Decimal,0,0,External Read/Write,NO,16,0,Controller,{98D70480-4881-11D4-9F26-0050DA19DE4A},%R01546,,,,,,Private,
R01547,WORD,mirror of FV03A_MTR_FWD,,YES,,Decimal,0,0,External Read/Write,NO,16,0,Controller,{98D70480-4881-11D4-9F26-0050DA19DE4A},%R01547,,,,,,Private,
R01548,WORD,mirror of FV03B_MTR_FWD,,YES,,Decimal,0,0,External Read/Write,NO,16,0,Controller,{98D70480-4881-11D4-9F26-0050DA19DE4A},%R01548,,,,,,Private,
R01549,WORD,mirror of FV03C_ACT_FWD,,YES,,Decimal,0,0,External Read/Write,NO,16,0,Controller,{98D70480-4881-11D4-9F26-0050DA19DE4A},%R01549,,,,,,Private,
R01550,WORD,mirror of FV03C_ACT_REV,,YES,,Decimal,0,0,External Read/Write,NO,16,0,Controller,{98D70480-4881-11D4-9F26-0050DA19DE4A},%R01550,,,,,,Private,
R01551,WORD,mirror of FV03D_ACT_FWD,,YES,,Decimal,0,0,External Read/Write,NO,16,0,Controller,{98D70480-4881-11D4-9F26-0050DA19DE4A},%R01551,,,,,,Private,
R01552,WORD,mirror of FV03D_ACT_REV,,YES,,Decimal,0,0,External Read/Write,NO,16,0,Controller,{98D70480-4881-11D4-9F26-0050DA19DE4A},%R01552,,,,,,Private,
R01553,WORD,mirror of FV04A_MTR_FWD,,YES,,Decimal,0,0,External Read/Write,NO,16,0,Controller,{98D70480-4881-11D4-9F26-0050DA19DE4A},%R01553,,,,,,Private,
R01554,WORD,mirror of FV04B_MTR_FWD,,YES,,Decimal,0,0,External Read/Write,NO,16,0,Controller,{98D70480-4881-11D4-9F26-0050DA19DE4A},%R01554,,,,,,Private,
R01555,WORD,mirror of FV04C_ACT_FWD,,YES,,Decimal,0,0,External Read/Write,NO,16,0,Controller,{98D70480-4881-11D4-9F26-0050DA19DE4A},%R01555,,,,,,Private,
R01556,WORD,mirror of FV04C_ACT_REV,,YES,,Decimal,0,0,External Read/Write,NO,16,0,Controller,{98D70480-4881-11D4-9F26-0050DA19DE4A},%R01556,,,,,,Private,
R01557,WORD,mirror of FV04D_ACT_FWD,,YES,,Decimal,0,0,External Read/Write,NO,16,0,Controller,{98D70480-4881-11D4-9F26-0050DA19DE4A},%R01557,,,,,,Private,
R01558,WORD,mirror of FV04D_ACT_REV,,YES,,Decimal,0,0,External Read/Write,NO,16,0,Controller,{98D70480-4881-11D4-9F26-0050DA19DE4A},%R01558,,,,,,Private,
R01559,WORD,mirror of CV04_MTR1_FWD,,YES,,Decimal,0,0,External Read/Write,NO,16,0,Controller,{98D70480-4881-11D4-9F26-0050DA19DE4A},%R01559,,,,,,Private,
R01560,WORD,mirror of CV04_MTR2_FWD,,YES,,Decimal,0,0,External Read/Write,NO,16,0,Controller,{98D70480-4881-11D4-9F26-0050DA19DE4A},%R01560,,,,,,Private,
R01561,WORD,mirror of BN02_MTR_FWD,,YES,,Decimal,0,0,External Read/Write,NO,16,0,Controller,{98D70480-4881-11D4-9F26-0050DA19DE4A},%R01561,,,,,,Private,
R01562,WORD,mirror of BN02_DSSOL_ON,,YES,,Decimal,0,0,External Read/Write,NO,16,0,Controller,{98D70480-4881-11D4-9F26-0050DA19DE4A},%R01562,,,,,,Private,
R01563,WORD,mirror of SA02_RUN,,YES,,Decimal,0,0,External Read/Write,NO,16,0,Controller,{98D70480-4881-11D4-9F26-0050DA19DE4A},%R01563,,,,,,Private,
R01564,WORD,mirror of SA02_RDY,,YES,,Decimal,0,0,External Read/Write,NO,16,1,Controller,{98D70480-4881-11D4-9F26-0050DA19DE4A},%R01564,,,,,,Private,
R01565,WORD,mirror of SA02_FLT,,YES,,Decimal,0,0,External Read/Write,NO,16,0,Controller,{98D70480-4881-11D4-9F26-0050DA19DE4A},%R01565,,,,,,Private,
R01566,WORD,mirror of SA02A_MTR_FWD,,YES,,Decimal,0,0,External Read/Write,NO,16,0,Controller,{98D70480-4881-11D4-9F26-0050DA19DE4A},%R01566,,,,,,Private,
R01567,WORD,mirror of CV05_MTR_FWD,,YES,,Decimal,0,0,External Read/Write,NO,16,0,Controller,{98D70480-4881-11D4-9F26-0050DA19DE4A},%R01567,,,,,,Private,
R01568,WORD,mirror of SA02B_MTR_FWD,,YES,,Decimal,0,0,External Read/Write,NO,16,0,Controller,{98D70480-4881-11D4-9F26-0050DA19DE4A},%R01568,,,,,,Private,
R01569,WORD,mirror of SA02C_MTR_FWD,,YES,,Decimal,0,0,External Read/Write,NO,16,0,Controller,{98D70480-4881-11D4-9F26-0050DA19DE4A},%R01569,,,,,,Private,
R01570,WORD,mirror of SA02D_MTR_FWD,,YES,,Decimal,0,0,External Read/Write,NO,16,0,Controller,{98D70480-4881-11D4-9F26-0050DA19DE4A},%R01570,,,,,,Private,
R01571,WORD,mirror of SA02E_MTR_FWD,,YES,,Decimal,0,0,External Read/Write,NO,16,0,Controller,{98D70480-4881-11D4-9F26-0050DA19DE4A},%R01571,,,,,,Private,
R01572,WORD,mirror of SA02B_MTR_REV,,YES,,Decimal,0,0,External Read/Write,NO,16,0,Controller,{98D70480-4881-11D4-9F26-0050DA19DE4A},%R01572,,,,,,Private,
R01573,WORD,mirror of SA02A_BRK_RLS,,YES,,Decimal,0,0,External Read/Write,NO,16,0,Controller,{98D70480-4881-11D4-9F26-0050DA19DE4A},%R01573,,,,,,Private,
R01574,WORD,mirror of SA02A_HLTHY,,YES,,Decimal,0,0,External Read/Write,NO,16,1,Controller,{98D70480-4881-11D4-9F26-0050DA19DE4A},%R01574,,,,,,Private,
R01575,WORD,mirror of FV01_DSSOL_ON,,YES,,Decimal,0,0,External Read/Write,NO,16,0,Controller,{98D70480-4881-11D4-9F26-0050DA19DE4A},%R01575,,,,,,Private,
R01576,WORD,mirror of FV02_DSSOL_ON,,YES,,Decimal,0,0,External Read/Write,NO,16,0,Controller,{98D70480-4881-11D4-9F26-0050DA19DE4A},%R01576,,,,,,Private,
R01577,WORD,mirror of FV03_DSSOL_ON,,YES,,Decimal,0,0,External Read/Write,NO,16,0,Controller,{98D70480-4881-11D4-9F26-0050DA19DE4A},%R01577,,,,,,Private,
R01578,WORD,mirror of FV04_DSSOL_ON,,YES,,Decimal,0,0,External Read/Write,NO,16,0,Controller,{98D70480-4881-11D4-9F26-0050DA19DE4A},%R01578,,,,,,Private,
R01579,WORD,mirror of RLF_GASSIREN,,YES,,Decimal,0,0,External Read/Write,NO,16,1,Controller,{98D70480-4881-11D4-9F26-0050DA19DE4A},%R01579,,,,,,Private,
R01580,WORD,mirror of RLF_FIPGAS,,YES,,Decimal,0,0,External Read/Write,NO,16,1,Controller,{98D70480-4881-11D4-9F26-0050DA19DE4A},%R01580,,,,,,Private,
R01581,WORD,mirror of FV05_DSSOL_ON,,YES,,Decimal,0,0,External Read/Write,NO,16,0,Controller,{98D70480-4881-11D4-9F26-0050DA19DE4A},%R01581,,,,,,Private,
R01582,WORD,mirror of RLF_TNL_ALERT_RED,,YES,,Decimal,0,0,External Read/Write,NO,16,0,Controller,{98D70480-4881-11D4-9F26-0050DA19DE4A},%R01582,,,,,,Private,
R01583,WORD,mirror of RLF_TNL_ALERT_GREEN,,YES,,Decimal,0,0,External Read/Write,NO,16,1,Controller,{98D70480-4881-11D4-9F26-0050DA19DE4A},%R01583,,,,,,Private,
R01584,WORD,mirror of RLF_TNL_ALERT_SIREN,,YES,,Decimal,0,0,External Read/Write,NO,16,0,Controller,{98D70480-4881-11D4-9F26-0050DA19DE4A},%R01584,,,,,,Private,
R01585,WORD,mirror of FV05A_MTR_FWD,,YES,,Decimal,0,0,External Read/Write,NO,16,0,Controller,{98D70480-4881-11D4-9F26-0050DA19DE4A},%R01585,,,,,,Private,
R01586,WORD,mirror of FV05B_MTR_FWD,,YES,,Decimal,0,0,External Read/Write,NO,16,0,Controller,{98D70480-4881-11D4-9F26-0050DA19DE4A},%R01586,,,,,,Private,
R01587,WORD,mirror of FV05C_ACT_FWD,,YES,,Decimal,0,0,External Read/Write,NO,16,0,Controller,{98D70480-4881-11D4-9F26-0050DA19DE4A},%R01587,,,,,,Private,
R01588,WORD,mirror of FV05C_ACT_REV,,YES,,Decimal,0,0,External Read/Write,NO,16,0,Controller,{98D70480-4881-11D4-9F26-0050DA19DE4A},%R01588,,,,,,Private,
R01589,WORD,mirror of FV05D_ACT_FWD,,YES,,Decimal,0,0,External Read/Write,NO,16,0,Controller,{98D70480-4881-11D4-9F26-0050DA19DE4A},%R01589,,,,,,Private,
R01590,WORD,mirror of FV05D_ACT_REV,,YES,,Decimal,0,0,External Read/Write,NO,16,0,Controller,{98D70480-4881-11D4-9F26-0050DA19DE4A},%R01590,,,,,,Private,
R01591,WORD,mirror of FN01_MTR_FWD,,YES,,Decimal,0,0,External Read/Write,NO,16,1,Controller,{98D70480-4881-11D4-9F26-0050DA19DE4A},%R01591,,,,,,Private,
